Full Address,Street Number,Street Name
2704 10TH AVENUE,2704,10TH AVENUE
801 11TH AVENUE,801,11TH AVENUE
1501 11TH AVENUE,1501,11TH AVENUE
1601 11TH AVENUE,1601,11TH AVENUE
1907 11TH AVENUE,1907,11TH AVENUE
2335 11TH AVENUE,2335,11TH AVENUE
4438 11TH AVENUE,4438,11TH AVENUE
1000 12TH AVENUE,1000,12TH AVENUE
1036 12TH AVENUE,1036,12TH AVENUE
1138 12TH AVENUE,1138,12TH AVENUE
1216 12TH AVENUE,1216,12TH AVENUE
1413 12TH AVENUE,1413,12TH AVENUE
1474 12TH AVENUE,1474,12TH AVENUE
1602 12TH AVENUE,1602,12TH AVENUE
2184 12TH AVENUE,2184,12TH AVENUE
2311 12TH AVENUE,2311,12TH AVENUE
2500 12TH AVENUE,2500,12TH AVENUE
2720 12TH AVENUE,2720,12TH AVENUE
3200 12TH AVENUE,3200,12TH AVENUE
1810 12TH AVENUE,1810,12TH AVENUE
808 13TH AVENUE,808,13TH AVENUE
822 13TH AVENUE,822,13TH AVENUE
1114 13TH AVENUE,1114,13TH AVENUE
2816 13TH AVENUE,2816,13TH AVENUE
2824 13TH AVENUE,2824,13TH AVENUE
2915 13TH AVENUE,2915,13TH AVENUE
3100 13TH AVENUE,3100,13TH AVENUE
3206 13TH AVENUE,3206,13TH AVENUE
3230 13TH AVENUE,3230,13TH AVENUE
3232 13TH AVENUE,3232,13TH AVENUE
3305 13TH AVENUE,3305,13TH AVENUE
3315 13TH AVENUE,3315,13TH AVENUE
3323 13TH AVENUE,3323,13TH AVENUE
3434 13TH AVENUE,3434,13TH AVENUE
1555 13TH AVENUE,1555,13TH AVENUE
3231 14TH AVENUE,3231,14TH AVENUE
1614 14TH AVENUE,1614,14TH AVENUE
2224 14TH AVENUE,2224,14TH AVENUE
2400 14TH AVENUE,2400,14TH AVENUE
2425 14TH AVENUE,2425,14TH AVENUE
1134 15TH AVENUE,1134,15TH AVENUE
1222 15TH AVENUE,1222,15TH AVENUE
1305 15TH AVENUE,1305,15TH AVENUE
1320 15TH AVENUE,1320,15TH AVENUE
1325 15TH AVENUE,1325,15TH AVENUE
1331 15TH AVENUE,1331,15TH AVENUE
1333 15TH AVENUE,1333,15TH AVENUE
1407 15TH AVENUE,1407,15TH AVENUE
1431 15TH AVENUE,1431,15TH AVENUE
1503 15TH AVENUE,1503,15TH AVENUE
1505 15TH AVENUE,1505,15TH AVENUE
1507 15TH AVENUE,1507,15TH AVENUE
1509 15TH AVENUE,1509,15TH AVENUE
1706 15TH AVENUE,1706,15TH AVENUE
1710 15TH AVENUE,1710,15TH AVENUE
2813 15TH AVENUE,2813,15TH AVENUE
2825 15TH AVENUE,2825,15TH AVENUE
2835 15TH AVENUE,2835,15TH AVENUE
2915 15TH AVENUE,2915,15TH AVENUE
2923 15TH AVENUE,2923,15TH AVENUE
3000 15TH AVENUE,3000,15TH AVENUE
3300 15TH AVENUE,3300,15TH AVENUE
3304 15TH AVENUE,3304,15TH AVENUE
3312 15TH AVENUE,3312,15TH AVENUE
3316 15TH AVENUE,3316,15TH AVENUE
3328 15TH AVENUE,3328,15TH AVENUE
3330 15TH AVENUE,3330,15TH AVENUE
3434 15TH AVENUE,3434,15TH AVENUE
3601 15TH AVENUE,3601,15TH AVENUE
722 17TH AVENUE,722,17TH AVENUE
902 18TH AVENUE,902,18TH AVENUE
3139 18TH AVENUE,3139,18TH AVENUE
2600 19TH AVENUE,2600,19TH AVENUE
2635 19TH AVENUE,2635,19TH AVENUE
2812 19TH AVENUE,2812,19TH AVENUE
2815 19TH AVENUE,2815,19TH AVENUE
2819 19TH AVENUE,2819,19TH AVENUE
2830 19TH AVENUE,2830,19TH AVENUE
2834 19TH AVENUE,2834,19TH AVENUE
2902 19TH AVENUE,2902,19TH AVENUE
2910 19TH AVENUE,2910,19TH AVENUE
2918 19TH AVENUE,2918,19TH AVENUE
2934 19TH AVENUE,2934,19TH AVENUE
2736 20TH AVENUE,2736,20TH AVENUE
3033 20TH AVENUE,3033,20TH AVENUE
2635 21ST AVENUE,2635,21ST AVENUE
2801 21ST AVENUE,2801,21ST AVENUE
2704 3RD AVENUE,2704,3RD AVENUE
836 4TH AVENUE,836,4TH AVENUE
3004 4TH AVENUE,3004,4TH AVENUE
3326 4TH AVENUE,3326,4TH AVENUE
2813 5TH AVENUE,2813,5TH AVENUE
3102 5TH AVENUE,3102,5TH AVENUE
405 6TH AVENUE,405,6TH AVENUE
1925 7TH AVENUE,1925,7TH AVENUE
2159 7TH AVENUE,2159,7TH AVENUE
2176 7TH AVENUE,2176,7TH AVENUE
5330 7TH AVENUE,5330,7TH AVENUE
1933 8TH AVENUE,1933,8TH AVENUE
2330 8TH AVENUE,2330,8TH AVENUE
2430 8TH AVENUE,2430,8TH AVENUE
3360 8TH AVENUE,3360,8TH AVENUE
4715 8TH AVENUE,4715,8TH AVENUE
4731 8TH AVENUE,4731,8TH AVENUE
4737 8TH AVENUE,4737,8TH AVENUE
4913 8TH AVENUE,4913,8TH AVENUE
4919 8TH AVENUE,4919,8TH AVENUE
4929 8TH AVENUE,4929,8TH AVENUE
1042 ALBERT STREET,1042,ALBERT STREET
1126 ALBERT STREET,1126,ALBERT STREET
1140 ALBERT STREET,1140,ALBERT STREET
1221 ALBERT STREET,1221,ALBERT STREET
1439 ALBERT STREET,1439,ALBERT STREET
1540 ALBERT STREET,1540,ALBERT STREET
1544 ALBERT STREET,1544,ALBERT STREET
1580 ALBERT STREET,1580,ALBERT STREET
1680 ALBERT STREET,1680,ALBERT STREET
1870 ALBERT STREET,1870,ALBERT STREET
2066 ALBERT STREET,2066,ALBERT STREET
2076 ALBERT STREET,2076,ALBERT STREET
2127 ALBERT STREET,2127,ALBERT STREET
2259 ALBERT STREET,2259,ALBERT STREET
2301 ALBERT STREET,2301,ALBERT STREET
2544 ALBERT STREET,2544,ALBERT STREET
2552 ALBERT STREET,2552,ALBERT STREET
2630 ALBERT STREET,2630,ALBERT STREET
2636 ALBERT STREET,2636,ALBERT STREET
2656 ALBERT STREET,2656,ALBERT STREET
2800 ALBERT STREET,2800,ALBERT STREET
2820 ALBERT STREET,2820,ALBERT STREET
2828 ALBERT STREET,2828,ALBERT STREET
2840 ALBERT STREET,2840,ALBERT STREET
2950 ALBERT STREET,2950,ALBERT STREET
2990 ALBERT STREET,2990,ALBERT STREET
3002 ALBERT STREET,3002,ALBERT STREET
3030 ALBERT STREET,3030,ALBERT STREET
3036 ALBERT STREET,3036,ALBERT STREET
3070 ALBERT STREET,3070,ALBERT STREET
3160 ALBERT STREET,3160,ALBERT STREET
3220 ALBERT STREET,3220,ALBERT STREET
3238 ALBERT STREET,3238,ALBERT STREET
3260 ALBERT STREET,3260,ALBERT STREET
3312 ALBERT STREET,3312,ALBERT STREET
3374 ALBERT STREET,3374,ALBERT STREET
2040 ALEXANDRA STREET,2040,ALEXANDRA STREET
2044 ALEXANDRA STREET,2044,ALEXANDRA STREET
2064 ALEXANDRA STREET,2064,ALEXANDRA STREET
2066 ALEXANDRA STREET,2066,ALEXANDRA STREET
2070 ALEXANDRA STREET,2070,ALEXANDRA STREET
2605 ANGUS BOULEVARD,2605,ANGUS BOULEVARD
2621 ANGUS BOULEVARD,2621,ANGUS BOULEVARD
2624 ANGUS BOULEVARD,2624,ANGUS BOULEVARD
2629 ANGUS BOULEVARD,2629,ANGUS BOULEVARD
2640 ANGUS BOULEVARD,2640,ANGUS BOULEVARD
2648 ANGUS BOULEVARD,2648,ANGUS BOULEVARD
2658 ANGUS BOULEVARD,2658,ANGUS BOULEVARD
2710 ANGUS BOULEVARD,2710,ANGUS BOULEVARD
2720 ANGUS BOULEVARD,2720,ANGUS BOULEVARD
2 ANGUS CRESCENT,2,ANGUS CRESCENT
3 ANGUS CRESCENT,3,ANGUS CRESCENT
7 ANGUS CRESCENT,7,ANGUS CRESCENT
11 ANGUS CRESCENT,11,ANGUS CRESCENT
16 ANGUS CRESCENT,16,ANGUS CRESCENT
20 ANGUS CRESCENT,20,ANGUS CRESCENT
29 ANGUS CRESCENT,29,ANGUS CRESCENT
32 ANGUS CRESCENT,32,ANGUS CRESCENT
36 ANGUS CRESCENT,36,ANGUS CRESCENT
41 ANGUS CRESCENT,41,ANGUS CRESCENT
45 ANGUS CRESCENT,45,ANGUS CRESCENT
48 ANGUS CRESCENT,48,ANGUS CRESCENT
56 ANGUS CRESCENT,56,ANGUS CRESCENT
71 ANGUS CRESCENT,71,ANGUS CRESCENT
76 ANGUS CRESCENT,76,ANGUS CRESCENT
87 ANGUS CRESCENT,87,ANGUS CRESCENT
88 ANGUS CRESCENT,88,ANGUS CRESCENT
93 ANGUS CRESCENT,93,ANGUS CRESCENT
98 ANGUS CRESCENT,98,ANGUS CRESCENT
99 ANGUS CRESCENT,99,ANGUS CRESCENT
105 ANGUS CRESCENT,105,ANGUS CRESCENT
109 ANGUS CRESCENT,109,ANGUS CRESCENT
112 ANGUS CRESCENT,112,ANGUS CRESCENT
121 ANGUS CRESCENT,121,ANGUS CRESCENT
122 ANGUS CRESCENT,122,ANGUS CRESCENT
127 ANGUS CRESCENT,127,ANGUS CRESCENT
132 ANGUS CRESCENT,132,ANGUS CRESCENT
133 ANGUS CRESCENT,133,ANGUS CRESCENT
139 ANGUS CRESCENT,139,ANGUS CRESCENT
140 ANGUS CRESCENT,140,ANGUS CRESCENT
147 ANGUS CRESCENT,147,ANGUS CRESCENT
148 ANGUS CRESCENT,148,ANGUS CRESCENT
154 ANGUS CRESCENT,154,ANGUS CRESCENT
176 ANGUS CRESCENT,176,ANGUS CRESCENT
179 ANGUS CRESCENT,179,ANGUS CRESCENT
190 ANGUS CRESCENT,190,ANGUS CRESCENT
195 ANGUS CRESCENT,195,ANGUS CRESCENT
203 ANGUS CRESCENT,203,ANGUS CRESCENT
216 ANGUS CRESCENT,216,ANGUS CRESCENT
217 ANGUS CRESCENT,217,ANGUS CRESCENT
226 ANGUS CRESCENT,226,ANGUS CRESCENT
231 ANGUS CRESCENT,231,ANGUS CRESCENT
232 ANGUS CRESCENT,232,ANGUS CRESCENT
237 ANGUS CRESCENT,237,ANGUS CRESCENT
238 ANGUS CRESCENT,238,ANGUS CRESCENT
242 ANGUS CRESCENT,242,ANGUS CRESCENT
245 ANGUS CRESCENT,245,ANGUS CRESCENT
250 ANGUS CRESCENT,250,ANGUS CRESCENT
251 ANGUS CRESCENT,251,ANGUS CRESCENT
254 ANGUS CRESCENT,254,ANGUS CRESCENT
257 ANGUS CRESCENT,257,ANGUS CRESCENT
278 ANGUS CRESCENT,278,ANGUS CRESCENT
285 ANGUS CRESCENT,285,ANGUS CRESCENT
286 ANGUS CRESCENT,286,ANGUS CRESCENT
290 ANGUS CRESCENT,290,ANGUS CRESCENT
293 ANGUS CRESCENT,293,ANGUS CRESCENT
308 ANGUS CRESCENT,308,ANGUS CRESCENT
906 ANGUS STREET,906,ANGUS STREET
910 ANGUS STREET,910,ANGUS STREET
936 ANGUS STREET,936,ANGUS STREET
1056 ANGUS STREET,1056,ANGUS STREET
1252 ANGUS STREET,1252,ANGUS STREET
1268 ANGUS STREET,1268,ANGUS STREET
1302 ANGUS STREET,1302,ANGUS STREET
1324 ANGUS STREET,1324,ANGUS STREET
1330 ANGUS STREET,1330,ANGUS STREET
1550 ANGUS STREET,1550,ANGUS STREET
1564 ANGUS STREET,1564,ANGUS STREET
1610 ANGUS STREET,1610,ANGUS STREET
1834 ANGUS STREET,1834,ANGUS STREET
1862 ANGUS STREET,1862,ANGUS STREET
1872 ANGUS STREET,1872,ANGUS STREET
1876 ANGUS STREET,1876,ANGUS STREET
1920 ANGUS STREET,1920,ANGUS STREET
1950 ANGUS STREET,1950,ANGUS STREET
1960 ANGUS STREET,1960,ANGUS STREET
2143 ANGUS STREET,2143,ANGUS STREET
2147 ANGUS STREET,2147,ANGUS STREET
2152 ANGUS STREET,2152,ANGUS STREET
2160 ANGUS STREET,2160,ANGUS STREET
2164 ANGUS STREET,2164,ANGUS STREET
2200 ANGUS STREET,2200,ANGUS STREET
2228 ANGUS STREET,2228,ANGUS STREET
2242 ANGUS STREET,2242,ANGUS STREET
2244 ANGUS STREET,2244,ANGUS STREET
2310 ANGUS STREET,2310,ANGUS STREET
2824 ANGUS STREET,2824,ANGUS STREET
2836 ANGUS STREET,2836,ANGUS STREET
2840 ANGUS STREET,2840,ANGUS STREET
2878 ANGUS STREET,2878,ANGUS STREET
2901 ANGUS STREET,2901,ANGUS STREET
2915 ANGUS STREET,2915,ANGUS STREET
2927 ANGUS STREET,2927,ANGUS STREET
2975 ANGUS STREET,2975,ANGUS STREET
3022 ANGUS STREET,3022,ANGUS STREET
3045 ANGUS STREET,3045,ANGUS STREET
3055 ANGUS STREET,3055,ANGUS STREET
3063 ANGUS STREET,3063,ANGUS STREET
3131 ANGUS STREET,3131,ANGUS STREET
3145 ANGUS STREET,3145,ANGUS STREET
3151 ANGUS STREET,3151,ANGUS STREET
3203 ANGUS STREET,3203,ANGUS STREET
3217 ANGUS STREET,3217,ANGUS STREET
3231 ANGUS STREET,3231,ANGUS STREET
3237 ANGUS STREET,3237,ANGUS STREET
3249 ANGUS STREET,3249,ANGUS STREET
3271 ANGUS STREET,3271,ANGUS STREET
3279 ANGUS STREET,3279,ANGUS STREET
3315 ANGUS STREET,3315,ANGUS STREET
3330 ANGUS STREET,3330,ANGUS STREET
3336 ANGUS STREET,3336,ANGUS STREET
916 ANGUS STREET,916,ANGUS STREET
310 ARCOLA AVENUE,310,ARCOLA AVENUE
600 ARCOLA AVENUE,600,ARCOLA AVENUE
850 ARCOLA AVENUE,850,ARCOLA AVENUE
870 ARCOLA AVENUE,870,ARCOLA AVENUE
870 ARCOLA AVENUE,870,ARCOLA AVENUE
870 ARCOLA AVENUE,870,ARCOLA AVENUE
870 ARCOLA AVENUE,870,ARCOLA AVENUE
950 ARCOLA AVENUE,950,ARCOLA AVENUE
847 ARGYLE STREET,847,ARGYLE STREET
855 ARGYLE STREET,855,ARGYLE STREET
915 ARGYLE STREET,915,ARGYLE STREET
921 ARGYLE STREET,921,ARGYLE STREET
935 ARGYLE STREET,935,ARGYLE STREET
942 ARGYLE STREET,942,ARGYLE STREET
947 ARGYLE STREET,947,ARGYLE STREET
948 ARGYLE STREET,948,ARGYLE STREET
955 ARGYLE STREET,955,ARGYLE STREET
961 ARGYLE STREET,961,ARGYLE STREET
968 ARGYLE STREET,968,ARGYLE STREET
970 ARGYLE STREET,970,ARGYLE STREET
979 ARGYLE STREET,979,ARGYLE STREET
1024 ARGYLE STREET,1024,ARGYLE STREET
1041 ARGYLE STREET,1041,ARGYLE STREET
1050 ARGYLE STREET,1050,ARGYLE STREET
1064 ARGYLE STREET,1064,ARGYLE STREET
1100 ARGYLE STREET,1100,ARGYLE STREET
1116 ARGYLE STREET,1116,ARGYLE STREET
1122 ARGYLE STREET,1122,ARGYLE STREET
1126 ARGYLE STREET,1126,ARGYLE STREET
1129 ARGYLE STREET,1129,ARGYLE STREET
1130 ARGYLE STREET,1130,ARGYLE STREET
1134 ARGYLE STREET,1134,ARGYLE STREET
1135 ARGYLE STREET,1135,ARGYLE STREET
1142 ARGYLE STREET,1142,ARGYLE STREET
1157 ARGYLE STREET,1157,ARGYLE STREET
1160 ARGYLE STREET,1160,ARGYLE STREET
1200 ARGYLE STREET,1200,ARGYLE STREET
1208 ARGYLE STREET,1208,ARGYLE STREET
1222 ARGYLE STREET,1222,ARGYLE STREET
1230 ARGYLE STREET,1230,ARGYLE STREET
1234 ARGYLE STREET,1234,ARGYLE STREET
1263 ARGYLE STREET,1263,ARGYLE STREET
1277 ARGYLE STREET,1277,ARGYLE STREET
1278 ARGYLE STREET,1278,ARGYLE STREET
1320 ARGYLE STREET,1320,ARGYLE STREET
1338 ARGYLE STREET,1338,ARGYLE STREET
1344 ARGYLE STREET,1344,ARGYLE STREET
1360 ARGYLE STREET,1360,ARGYLE STREET
1400 ARGYLE STREET,1400,ARGYLE STREET
1420 ARGYLE STREET,1420,ARGYLE STREET
1425 ARGYLE STREET,1425,ARGYLE STREET
1428 ARGYLE STREET,1428,ARGYLE STREET
1429 ARGYLE STREET,1429,ARGYLE STREET
1444 ARGYLE STREET,1444,ARGYLE STREET
1450 ARGYLE STREET,1450,ARGYLE STREET
1453 ARGYLE STREET,1453,ARGYLE STREET
1456 ARGYLE STREET,1456,ARGYLE STREET
1457 ARGYLE STREET,1457,ARGYLE STREET
1903 ARGYLE STREET,1903,ARGYLE STREET
1926 ARGYLE STREET,1926,ARGYLE STREET
1930 ARGYLE STREET,1930,ARGYLE STREET
1940 ARGYLE STREET,1940,ARGYLE STREET
1956 ARGYLE STREET,1956,ARGYLE STREET
2022 ARGYLE STREET,2022,ARGYLE STREET
2025 ARGYLE STREET,2025,ARGYLE STREET
2030 ARGYLE STREET,2030,ARGYLE STREET
2031 ARGYLE STREET,2031,ARGYLE STREET
2053 ARGYLE STREET,2053,ARGYLE STREET
2054 ARGYLE STREET,2054,ARGYLE STREET
2055 ARGYLE STREET,2055,ARGYLE STREET
2058 ARGYLE STREET,2058,ARGYLE STREET
2071 ARGYLE STREET,2071,ARGYLE STREET
2075 ARGYLE STREET,2075,ARGYLE STREET
2106 ARGYLE STREET,2106,ARGYLE STREET
2112 ARGYLE STREET,2112,ARGYLE STREET
2118 ARGYLE STREET,2118,ARGYLE STREET
2216 ARGYLE STREET,2216,ARGYLE STREET
2240 ARGYLE STREET,2240,ARGYLE STREET
2252 ARGYLE STREET,2252,ARGYLE STREET
2260 ARGYLE STREET,2260,ARGYLE STREET
2261 ARGYLE STREET,2261,ARGYLE STREET
2275 ARGYLE STREET,2275,ARGYLE STREET
2279 ARGYLE STREET,2279,ARGYLE STREET
2312 ARGYLE STREET,2312,ARGYLE STREET
2340 ARGYLE STREET,2340,ARGYLE STREET
2341 ARGYLE STREET,2341,ARGYLE STREET
2342 ARGYLE STREET,2342,ARGYLE STREET
2050 ARGYLE STREET,2050,ARGYLE STREET
1325 ARTHUR STREET,1325,ARTHUR STREET
1330 ARTHUR STREET,1330,ARTHUR STREET
1333 ARTHUR STREET,1333,ARTHUR STREET
1353 ARTHUR STREET,1353,ARTHUR STREET
1359 ARTHUR STREET,1359,ARTHUR STREET
1431 ARTHUR STREET,1431,ARTHUR STREET
1437 ARTHUR STREET,1437,ARTHUR STREET
1443 ARTHUR STREET,1443,ARTHUR STREET
1449 ARTHUR STREET,1449,ARTHUR STREET
709 ATHOL STREET,709,ATHOL STREET
724 ATHOL STREET,724,ATHOL STREET
745 ATHOL STREET,745,ATHOL STREET
759 ATHOL STREET,759,ATHOL STREET
771 ATHOL STREET,771,ATHOL STREET
773 ATHOL STREET,773,ATHOL STREET
825 ATHOL STREET,825,ATHOL STREET
847 ATHOL STREET,847,ATHOL STREET
853 ATHOL STREET,853,ATHOL STREET
859 ATHOL STREET,859,ATHOL STREET
865 ATHOL STREET,865,ATHOL STREET
909 ATHOL STREET,909,ATHOL STREET
910 ATHOL STREET,910,ATHOL STREET
919 ATHOL STREET,919,ATHOL STREET
921 ATHOL STREET,921,ATHOL STREET
925 ATHOL STREET,925,ATHOL STREET
939 ATHOL STREET,939,ATHOL STREET
943 ATHOL STREET,943,ATHOL STREET
964 ATHOL STREET,964,ATHOL STREET
967 ATHOL STREET,967,ATHOL STREET
979 ATHOL STREET,979,ATHOL STREET
1002 ATHOL STREET,1002,ATHOL STREET
1004 ATHOL STREET,1004,ATHOL STREET
1011 ATHOL STREET,1011,ATHOL STREET
1029 ATHOL STREET,1029,ATHOL STREET
1035 ATHOL STREET,1035,ATHOL STREET
1040 ATHOL STREET,1040,ATHOL STREET
1048 ATHOL STREET,1048,ATHOL STREET
1053 ATHOL STREET,1053,ATHOL STREET
1060 ATHOL STREET,1060,ATHOL STREET
1068 ATHOL STREET,1068,ATHOL STREET
1070 ATHOL STREET,1070,ATHOL STREET
1073 ATHOL STREET,1073,ATHOL STREET
1074 ATHOL STREET,1074,ATHOL STREET
1077 ATHOL STREET,1077,ATHOL STREET
1078 ATHOL STREET,1078,ATHOL STREET
1122 ATHOL STREET,1122,ATHOL STREET
1124 ATHOL STREET,1124,ATHOL STREET
1127 ATHOL STREET,1127,ATHOL STREET
1137 ATHOL STREET,1137,ATHOL STREET
1143 ATHOL STREET,1143,ATHOL STREET
1154 ATHOL STREET,1154,ATHOL STREET
1156 ATHOL STREET,1156,ATHOL STREET
1172 ATHOL STREET,1172,ATHOL STREET
1180 ATHOL STREET,1180,ATHOL STREET
1211 ATHOL STREET,1211,ATHOL STREET
1229 ATHOL STREET,1229,ATHOL STREET
1247 ATHOL STREET,1247,ATHOL STREET
1263 ATHOL STREET,1263,ATHOL STREET
1269 ATHOL STREET,1269,ATHOL STREET
1300 ATHOL STREET,1300,ATHOL STREET
1304 ATHOL STREET,1304,ATHOL STREET
1313 ATHOL STREET,1313,ATHOL STREET
1314 ATHOL STREET,1314,ATHOL STREET
1317 ATHOL STREET,1317,ATHOL STREET
1327 ATHOL STREET,1327,ATHOL STREET
1330 ATHOL STREET,1330,ATHOL STREET
1335 ATHOL STREET,1335,ATHOL STREET
1348 ATHOL STREET,1348,ATHOL STREET
1349 ATHOL STREET,1349,ATHOL STREET
1352 ATHOL STREET,1352,ATHOL STREET
1353 ATHOL STREET,1353,ATHOL STREET
1361 ATHOL STREET,1361,ATHOL STREET
1365 ATHOL STREET,1365,ATHOL STREET
1372 ATHOL STREET,1372,ATHOL STREET
1409 ATHOL STREET,1409,ATHOL STREET
1425 ATHOL STREET,1425,ATHOL STREET
1427 ATHOL STREET,1427,ATHOL STREET
1457 ATHOL STREET,1457,ATHOL STREET
1522 ATHOL STREET,1522,ATHOL STREET
1525 ATHOL STREET,1525,ATHOL STREET
1527 ATHOL STREET,1527,ATHOL STREET
1531 ATHOL STREET,1531,ATHOL STREET
1540 ATHOL STREET,1540,ATHOL STREET
1547 ATHOL STREET,1547,ATHOL STREET
1553 ATHOL STREET,1553,ATHOL STREET
1563 ATHOL STREET,1563,ATHOL STREET
1566 ATHOL STREET,1566,ATHOL STREET
1575 ATHOL STREET,1575,ATHOL STREET
1576 ATHOL STREET,1576,ATHOL STREET
1579 ATHOL STREET,1579,ATHOL STREET
1600 ATHOL STREET,1600,ATHOL STREET
1601 ATHOL STREET,1601,ATHOL STREET
1607 ATHOL STREET,1607,ATHOL STREET
1612 ATHOL STREET,1612,ATHOL STREET
1623 ATHOL STREET,1623,ATHOL STREET
1629 ATHOL STREET,1629,ATHOL STREET
1630 ATHOL STREET,1630,ATHOL STREET
1635 ATHOL STREET,1635,ATHOL STREET
1651 ATHOL STREET,1651,ATHOL STREET
1657 ATHOL STREET,1657,ATHOL STREET
1661 ATHOL STREET,1661,ATHOL STREET
1666 ATHOL STREET,1666,ATHOL STREET
1909 ATHOL STREET,1909,ATHOL STREET
1915 ATHOL STREET,1915,ATHOL STREET
1916 ATHOL STREET,1916,ATHOL STREET
1925 ATHOL STREET,1925,ATHOL STREET
1926 ATHOL STREET,1926,ATHOL STREET
1929 ATHOL STREET,1929,ATHOL STREET
1930 ATHOL STREET,1930,ATHOL STREET
1931 ATHOL STREET,1931,ATHOL STREET
1933 ATHOL STREET,1933,ATHOL STREET
1946 ATHOL STREET,1946,ATHOL STREET
1954 ATHOL STREET,1954,ATHOL STREET
1955 ATHOL STREET,1955,ATHOL STREET
1957 ATHOL STREET,1957,ATHOL STREET
1958 ATHOL STREET,1958,ATHOL STREET
2033 ATHOL STREET,2033,ATHOL STREET
2035 ATHOL STREET,2035,ATHOL STREET
2041 ATHOL STREET,2041,ATHOL STREET
2046 ATHOL STREET,2046,ATHOL STREET
2047 ATHOL STREET,2047,ATHOL STREET
2054 ATHOL STREET,2054,ATHOL STREET
2202 ATHOL STREET,2202,ATHOL STREET
2206 ATHOL STREET,2206,ATHOL STREET
2210 ATHOL STREET,2210,ATHOL STREET
2243 ATHOL STREET,2243,ATHOL STREET
2248 ATHOL STREET,2248,ATHOL STREET
2250 ATHOL STREET,2250,ATHOL STREET
2253 ATHOL STREET,2253,ATHOL STREET
2265 ATHOL STREET,2265,ATHOL STREET
2300 ATHOL STREET,2300,ATHOL STREET
2317 ATHOL STREET,2317,ATHOL STREET
2325 ATHOL STREET,2325,ATHOL STREET
2330 ATHOL STREET,2330,ATHOL STREET
2335 ATHOL STREET,2335,ATHOL STREET
2336 ATHOL STREET,2336,ATHOL STREET
2341 ATHOL STREET,2341,ATHOL STREET
2342 ATHOL STREET,2342,ATHOL STREET
2345 ATHOL STREET,2345,ATHOL STREET
2352 ATHOL STREET,2352,ATHOL STREET
1545 ATHOL STREET,1545,ATHOL STREET
1920 ATHOL STREET,1920,ATHOL STREET
939 ATKINSON STREET,939,ATKINSON STREET
955 ATKINSON STREET,955,ATKINSON STREET
1114 ATKINSON STREET,1114,ATKINSON STREET
1147 ATKINSON STREET,1147,ATKINSON STREET
1155 ATKINSON STREET,1155,ATKINSON STREET
1156 ATKINSON STREET,1156,ATKINSON STREET
1160 ATKINSON STREET,1160,ATKINSON STREET
1170 ATKINSON STREET,1170,ATKINSON STREET
1200 ATKINSON STREET,1200,ATKINSON STREET
1210 ATKINSON STREET,1210,ATKINSON STREET
1243 ATKINSON STREET,1243,ATKINSON STREET
1251 ATKINSON STREET,1251,ATKINSON STREET
1255 ATKINSON STREET,1255,ATKINSON STREET
1261 ATKINSON STREET,1261,ATKINSON STREET
1265 ATKINSON STREET,1265,ATKINSON STREET
1271 ATKINSON STREET,1271,ATKINSON STREET
1900 ATKINSON STREET,1900,ATKINSON STREET
1901 ATKINSON STREET,1901,ATKINSON STREET
1905 ATKINSON STREET,1905,ATKINSON STREET
1908 ATKINSON STREET,1908,ATKINSON STREET
1911 ATKINSON STREET,1911,ATKINSON STREET
1912 ATKINSON STREET,1912,ATKINSON STREET
1915 ATKINSON STREET,1915,ATKINSON STREET
1918 ATKINSON STREET,1918,ATKINSON STREET
1919 ATKINSON STREET,1919,ATKINSON STREET
1921 ATKINSON STREET,1921,ATKINSON STREET
1922 ATKINSON STREET,1922,ATKINSON STREET
1924 ATKINSON STREET,1924,ATKINSON STREET
1928 ATKINSON STREET,1928,ATKINSON STREET
1929 ATKINSON STREET,1929,ATKINSON STREET
1941 ATKINSON STREET,1941,ATKINSON STREET
1945 ATKINSON STREET,1945,ATKINSON STREET
1946 ATKINSON STREET,1946,ATKINSON STREET
1950 ATKINSON STREET,1950,ATKINSON STREET
2026 ATKINSON STREET,2026,ATKINSON STREET
2040 ATKINSON STREET,2040,ATKINSON STREET
2051 ATKINSON STREET,2051,ATKINSON STREET
2055 ATKINSON STREET,2055,ATKINSON STREET
2058 ATKINSON STREET,2058,ATKINSON STREET
2062 ATKINSON STREET,2062,ATKINSON STREET
2063 ATKINSON STREET,2063,ATKINSON STREET
2066 ATKINSON STREET,2066,ATKINSON STREET
2067 ATKINSON STREET,2067,ATKINSON STREET
2070 ATKINSON STREET,2070,ATKINSON STREET
2073 ATKINSON STREET,2073,ATKINSON STREET
2074 ATKINSON STREET,2074,ATKINSON STREET
2100 ATKINSON STREET,2100,ATKINSON STREET
2108 ATKINSON STREET,2108,ATKINSON STREET
2118 ATKINSON STREET,2118,ATKINSON STREET
2120 ATKINSON STREET,2120,ATKINSON STREET
2124 ATKINSON STREET,2124,ATKINSON STREET
2129 ATKINSON STREET,2129,ATKINSON STREET
2130 ATKINSON STREET,2130,ATKINSON STREET
2133 ATKINSON STREET,2133,ATKINSON STREET
2136 ATKINSON STREET,2136,ATKINSON STREET
2137 ATKINSON STREET,2137,ATKINSON STREET
2148 ATKINSON STREET,2148,ATKINSON STREET
2152 ATKINSON STREET,2152,ATKINSON STREET
2164 ATKINSON STREET,2164,ATKINSON STREET
2166 ATKINSON STREET,2166,ATKINSON STREET
2167 ATKINSON STREET,2167,ATKINSON STREET
2171 ATKINSON STREET,2171,ATKINSON STREET
2179 ATKINSON STREET,2179,ATKINSON STREET
2182 ATKINSON STREET,2182,ATKINSON STREET
2201 ATKINSON STREET,2201,ATKINSON STREET
2221 ATKINSON STREET,2221,ATKINSON STREET
2225 ATKINSON STREET,2225,ATKINSON STREET
2229 ATKINSON STREET,2229,ATKINSON STREET
2243 ATKINSON STREET,2243,ATKINSON STREET
2249 ATKINSON STREET,2249,ATKINSON STREET
2300 ATKINSON STREET,2300,ATKINSON STREET
2310 ATKINSON STREET,2310,ATKINSON STREET
2313 ATKINSON STREET,2313,ATKINSON STREET
2320 ATKINSON STREET,2320,ATKINSON STREET
2425 ATKINSON STREET,2425,ATKINSON STREET
2430 ATKINSON STREET,2430,ATKINSON STREET
2433 ATKINSON STREET,2433,ATKINSON STREET
2458 ATKINSON STREET,2458,ATKINSON STREET
2459 ATKINSON STREET,2459,ATKINSON STREET
2464 ATKINSON STREET,2464,ATKINSON STREET
2469 ATKINSON STREET,2469,ATKINSON STREET
2501 ATKINSON STREET,2501,ATKINSON STREET
2525 ATKINSON STREET,2525,ATKINSON STREET
2530 ATKINSON STREET,2530,ATKINSON STREET
2536 ATKINSON STREET,2536,ATKINSON STREET
2539 ATKINSON STREET,2539,ATKINSON STREET
2545 ATKINSON STREET,2545,ATKINSON STREET
2550 ATKINSON STREET,2550,ATKINSON STREET
2552 ATKINSON STREET,2552,ATKINSON STREET
2555 ATKINSON STREET,2555,ATKINSON STREET
2627 ATKINSON STREET,2627,ATKINSON STREET
2630 ATKINSON STREET,2630,ATKINSON STREET
2631 ATKINSON STREET,2631,ATKINSON STREET
2633 ATKINSON STREET,2633,ATKINSON STREET
2634 ATKINSON STREET,2634,ATKINSON STREET
2640 ATKINSON STREET,2640,ATKINSON STREET
2647 ATKINSON STREET,2647,ATKINSON STREET
2650 ATKINSON STREET,2650,ATKINSON STREET
2651 ATKINSON STREET,2651,ATKINSON STREET
2660 ATKINSON STREET,2660,ATKINSON STREET
2663 ATKINSON STREET,2663,ATKINSON STREET
2666 ATKINSON STREET,2666,ATKINSON STREET
2669 ATKINSON STREET,2669,ATKINSON STREET
2675 ATKINSON STREET,2675,ATKINSON STREET
1209 BROAD STREET,1209,BROAD STREET
1360 BROAD STREET,1360,BROAD STREET
1601 BROAD STREET,1601,BROAD STREET
1625 BROAD STREET,1625,BROAD STREET
1725 BROAD STREET,1725,BROAD STREET
1821 BROAD STREET,1821,BROAD STREET
1822 BROAD STREET,1822,BROAD STREET
1833 BROAD STREET,1833,BROAD STREET
1840 BROAD STREET,1840,BROAD STREET
1853 BROAD STREET,1853,BROAD STREET
1858 BROAD STREET,1858,BROAD STREET
1861 BROAD STREET,1861,BROAD STREET
1865 BROAD STREET,1865,BROAD STREET
1025 BRODER STREET,1025,BRODER STREET
1225 BRODER STREET,1225,BRODER STREET
1259 BRODER STREET,1259,BRODER STREET
1265 BRODER STREET,1265,BRODER STREET
1336 BRODER STREET,1336,BRODER STREET
1340 BRODER STREET,1340,BRODER STREET
1902 BRODER STREET,1902,BRODER STREET
1908 BRODER STREET,1908,BRODER STREET
1912 BRODER STREET,1912,BRODER STREET
1916 BRODER STREET,1916,BRODER STREET
1917 BRODER STREET,1917,BRODER STREET
1920 BRODER STREET,1920,BRODER STREET
1921 BRODER STREET,1921,BRODER STREET
1936 BRODER STREET,1936,BRODER STREET
1941 BRODER STREET,1941,BRODER STREET
1955 BRODER STREET,1955,BRODER STREET
2023 BRODER STREET,2023,BRODER STREET
2026 BRODER STREET,2026,BRODER STREET
2030 BRODER STREET,2030,BRODER STREET
2031 BRODER STREET,2031,BRODER STREET
2036 BRODER STREET,2036,BRODER STREET
2038 BRODER STREET,2038,BRODER STREET
2042 BRODER STREET,2042,BRODER STREET
2045 BRODER STREET,2045,BRODER STREET
2048 BRODER STREET,2048,BRODER STREET
2051 BRODER STREET,2051,BRODER STREET
2059 BRODER STREET,2059,BRODER STREET
2065 BRODER STREET,2065,BRODER STREET
2071 BRODER STREET,2071,BRODER STREET
2105 BRODER STREET,2105,BRODER STREET
2111 BRODER STREET,2111,BRODER STREET
2120 BRODER STREET,2120,BRODER STREET
2124 BRODER STREET,2124,BRODER STREET
2127 BRODER STREET,2127,BRODER STREET
2128 BRODER STREET,2128,BRODER STREET
2132 BRODER STREET,2132,BRODER STREET
2136 BRODER STREET,2136,BRODER STREET
2149 BRODER STREET,2149,BRODER STREET
2161 BRODER STREET,2161,BRODER STREET
2164 BRODER STREET,2164,BRODER STREET
2165 BRODER STREET,2165,BRODER STREET
2204 BRODER STREET,2204,BRODER STREET
2215 BRODER STREET,2215,BRODER STREET
2216 BRODER STREET,2216,BRODER STREET
2219 BRODER STREET,2219,BRODER STREET
2222 BRODER STREET,2222,BRODER STREET
2225 BRODER STREET,2225,BRODER STREET
2229 BRODER STREET,2229,BRODER STREET
2232 BRODER STREET,2232,BRODER STREET
2237 BRODER STREET,2237,BRODER STREET
2238 BRODER STREET,2238,BRODER STREET
2245 BRODER STREET,2245,BRODER STREET
2253 BRODER STREET,2253,BRODER STREET
2256 BRODER STREET,2256,BRODER STREET
2257 BRODER STREET,2257,BRODER STREET
2262 BRODER STREET,2262,BRODER STREET
2263 BRODER STREET,2263,BRODER STREET
2265 BRODER STREET,2265,BRODER STREET
2274 BRODER STREET,2274,BRODER STREET
2279 BRODER STREET,2279,BRODER STREET
2300 BRODER STREET,2300,BRODER STREET
2321 BRODER STREET,2321,BRODER STREET
2331 BRODER STREET,2331,BRODER STREET
2349 BRODER STREET,2349,BRODER STREET
2355 BRODER STREET,2355,BRODER STREET
2424 BRODER STREET,2424,BRODER STREET
2426 BRODER STREET,2426,BRODER STREET
2440 BRODER STREET,2440,BRODER STREET
2500 BRODER STREET,2500,BRODER STREET
2516 BRODER STREET,2516,BRODER STREET
2520 BRODER STREET,2520,BRODER STREET
2522 BRODER STREET,2522,BRODER STREET
2525 BRODER STREET,2525,BRODER STREET
2641 BRODER STREET,2641,BRODER STREET
2653 BRODER STREET,2653,BRODER STREET
2664 BRODER STREET,2664,BRODER STREET
2672 BRODER STREET,2672,BRODER STREET
1332 BRODER STREET,1332,BRODER STREET
802 CAMERON STREET,802,CAMERON STREET
810 CAMERON STREET,810,CAMERON STREET
816 CAMERON STREET,816,CAMERON STREET
817 CAMERON STREET,817,CAMERON STREET
827 CAMERON STREET,827,CAMERON STREET
831 CAMERON STREET,831,CAMERON STREET
844 CAMERON STREET,844,CAMERON STREET
851 CAMERON STREET,851,CAMERON STREET
923 CAMERON STREET,923,CAMERON STREET
933 CAMERON STREET,933,CAMERON STREET
949 CAMERON STREET,949,CAMERON STREET
965 CAMERON STREET,965,CAMERON STREET
1003 CAMERON STREET,1003,CAMERON STREET
1007 CAMERON STREET,1007,CAMERON STREET
1008 CAMERON STREET,1008,CAMERON STREET
1014 CAMERON STREET,1014,CAMERON STREET
1020 CAMERON STREET,1020,CAMERON STREET
1026 CAMERON STREET,1026,CAMERON STREET
1028 CAMERON STREET,1028,CAMERON STREET
1034 CAMERON STREET,1034,CAMERON STREET
1037 CAMERON STREET,1037,CAMERON STREET
1040 CAMERON STREET,1040,CAMERON STREET
1046 CAMERON STREET,1046,CAMERON STREET
1050 CAMERON STREET,1050,CAMERON STREET
1054 CAMERON STREET,1054,CAMERON STREET
1062 CAMERON STREET,1062,CAMERON STREET
1114 CAMERON STREET,1114,CAMERON STREET
1117 CAMERON STREET,1117,CAMERON STREET
1136 CAMERON STREET,1136,CAMERON STREET
1140 CAMERON STREET,1140,CAMERON STREET
1141 CAMERON STREET,1141,CAMERON STREET
1151 CAMERON STREET,1151,CAMERON STREET
1164 CAMERON STREET,1164,CAMERON STREET
1170 CAMERON STREET,1170,CAMERON STREET
1175 CAMERON STREET,1175,CAMERON STREET
1178 CAMERON STREET,1178,CAMERON STREET
1200 CAMERON STREET,1200,CAMERON STREET
1201 CAMERON STREET,1201,CAMERON STREET
1218 CAMERON STREET,1218,CAMERON STREET
1245 CAMERON STREET,1245,CAMERON STREET
1251 CAMERON STREET,1251,CAMERON STREET
1264 CAMERON STREET,1264,CAMERON STREET
1270 CAMERON STREET,1270,CAMERON STREET
1304 CAMERON STREET,1304,CAMERON STREET
1322 CAMERON STREET,1322,CAMERON STREET
1330 CAMERON STREET,1330,CAMERON STREET
1334 CAMERON STREET,1334,CAMERON STREET
1336 CAMERON STREET,1336,CAMERON STREET
1340 CAMERON STREET,1340,CAMERON STREET
1346 CAMERON STREET,1346,CAMERON STREET
1360 CAMERON STREET,1360,CAMERON STREET
1362 CAMERON STREET,1362,CAMERON STREET
1400 CAMERON STREET,1400,CAMERON STREET
1401 CAMERON STREET,1401,CAMERON STREET
1405 CAMERON STREET,1405,CAMERON STREET
1408 CAMERON STREET,1408,CAMERON STREET
1411 CAMERON STREET,1411,CAMERON STREET
1415 CAMERON STREET,1415,CAMERON STREET
1417 CAMERON STREET,1417,CAMERON STREET
1422 CAMERON STREET,1422,CAMERON STREET
1423 CAMERON STREET,1423,CAMERON STREET
1427 CAMERON STREET,1427,CAMERON STREET
1428 CAMERON STREET,1428,CAMERON STREET
1431 CAMERON STREET,1431,CAMERON STREET
1432 CAMERON STREET,1432,CAMERON STREET
1433 CAMERON STREET,1433,CAMERON STREET
1437 CAMERON STREET,1437,CAMERON STREET
1443 CAMERON STREET,1443,CAMERON STREET
1450 CAMERON STREET,1450,CAMERON STREET
1455 CAMERON STREET,1455,CAMERON STREET
1457 CAMERON STREET,1457,CAMERON STREET
1458 CAMERON STREET,1458,CAMERON STREET
1459 CAMERON STREET,1459,CAMERON STREET
1539 CAMERON STREET,1539,CAMERON STREET
1544 CAMERON STREET,1544,CAMERON STREET
1545 CAMERON STREET,1545,CAMERON STREET
1547 CAMERON STREET,1547,CAMERON STREET
1548 CAMERON STREET,1548,CAMERON STREET
1551 CAMERON STREET,1551,CAMERON STREET
1555 CAMERON STREET,1555,CAMERON STREET
1565 CAMERON STREET,1565,CAMERON STREET
1566 CAMERON STREET,1566,CAMERON STREET
1570 CAMERON STREET,1570,CAMERON STREET
1571 CAMERON STREET,1571,CAMERON STREET
1576 CAMERON STREET,1576,CAMERON STREET
1578 CAMERON STREET,1578,CAMERON STREET
1855 CAMERON STREET,1855,CAMERON STREET
1873 CAMERON STREET,1873,CAMERON STREET
1902 CAMERON STREET,1902,CAMERON STREET
1903 CAMERON STREET,1903,CAMERON STREET
1906 CAMERON STREET,1906,CAMERON STREET
1909 CAMERON STREET,1909,CAMERON STREET
1912 CAMERON STREET,1912,CAMERON STREET
1915 CAMERON STREET,1915,CAMERON STREET
1918 CAMERON STREET,1918,CAMERON STREET
1920 CAMERON STREET,1920,CAMERON STREET
1925 CAMERON STREET,1925,CAMERON STREET
1928 CAMERON STREET,1928,CAMERON STREET
1935 CAMERON STREET,1935,CAMERON STREET
1941 CAMERON STREET,1941,CAMERON STREET
1952 CAMERON STREET,1952,CAMERON STREET
1954 CAMERON STREET,1954,CAMERON STREET
1958 CAMERON STREET,1958,CAMERON STREET
2039 CAMERON STREET,2039,CAMERON STREET
2043 CAMERON STREET,2043,CAMERON STREET
2143 CAMERON STREET,2143,CAMERON STREET
2147 CAMERON STREET,2147,CAMERON STREET
2153 CAMERON STREET,2153,CAMERON STREET
2157 CAMERON STREET,2157,CAMERON STREET
2161 CAMERON STREET,2161,CAMERON STREET
2167 CAMERON STREET,2167,CAMERON STREET
2171 CAMERON STREET,2171,CAMERON STREET
2200 CAMERON STREET,2200,CAMERON STREET
2203 CAMERON STREET,2203,CAMERON STREET
2207 CAMERON STREET,2207,CAMERON STREET
2217 CAMERON STREET,2217,CAMERON STREET
2224 CAMERON STREET,2224,CAMERON STREET
2227 CAMERON STREET,2227,CAMERON STREET
2231 CAMERON STREET,2231,CAMERON STREET
2235 CAMERON STREET,2235,CAMERON STREET
2237 CAMERON STREET,2237,CAMERON STREET
2243 CAMERON STREET,2243,CAMERON STREET
2247 CAMERON STREET,2247,CAMERON STREET
2248 CAMERON STREET,2248,CAMERON STREET
2258 CAMERON STREET,2258,CAMERON STREET
2273 CAMERON STREET,2273,CAMERON STREET
2277 CAMERON STREET,2277,CAMERON STREET
2301 CAMERON STREET,2301,CAMERON STREET
2305 CAMERON STREET,2305,CAMERON STREET
2312 CAMERON STREET,2312,CAMERON STREET
2316 CAMERON STREET,2316,CAMERON STREET
2322 CAMERON STREET,2322,CAMERON STREET
2325 CAMERON STREET,2325,CAMERON STREET
2328 CAMERON STREET,2328,CAMERON STREET
2329 CAMERON STREET,2329,CAMERON STREET
2333 CAMERON STREET,2333,CAMERON STREET
2337 CAMERON STREET,2337,CAMERON STREET
2343 CAMERON STREET,2343,CAMERON STREET
2625 CAMERON STREET,2625,CAMERON STREET
2631 CAMERON STREET,2631,CAMERON STREET
2656 CAMERON STREET,2656,CAMERON STREET
2670 CAMERON STREET,2670,CAMERON STREET
2676 CAMERON STREET,2676,CAMERON STREET
2679 CAMERON STREET,2679,CAMERON STREET
2824 CAMERON STREET,2824,CAMERON STREET
2825 CAMERON STREET,2825,CAMERON STREET
2830 CAMERON STREET,2830,CAMERON STREET
2834 CAMERON STREET,2834,CAMERON STREET
2835 CAMERON STREET,2835,CAMERON STREET
2841 CAMERON STREET,2841,CAMERON STREET
2842 CAMERON STREET,2842,CAMERON STREET
2860 CAMERON STREET,2860,CAMERON STREET
2867 CAMERON STREET,2867,CAMERON STREET
2905 CAMERON STREET,2905,CAMERON STREET
2919 CAMERON STREET,2919,CAMERON STREET
2925 CAMERON STREET,2925,CAMERON STREET
2949 CAMERON STREET,2949,CAMERON STREET
2957 CAMERON STREET,2957,CAMERON STREET
3110 CAMERON STREET,3110,CAMERON STREET
3114 CAMERON STREET,3114,CAMERON STREET
1029 CAMERON STREET,1029,CAMERON STREET
1041 CAMERON STREET,1041,CAMERON STREET
1354 CAMERON STREET,1354,CAMERON STREET
1572 CAMERON STREET,1572,CAMERON STREET
969 CAMERON STREET,969,CAMERON STREET
2 CECIL CRESCENT,2,CECIL CRESCENT
4 CECIL CRESCENT,4,CECIL CRESCENT
5 CECIL CRESCENT,5,CECIL CRESCENT
6 CECIL CRESCENT,6,CECIL CRESCENT
7 CECIL CRESCENT,7,CECIL CRESCENT
8 CECIL CRESCENT,8,CECIL CRESCENT
9 CECIL CRESCENT,9,CECIL CRESCENT
10 CECIL CRESCENT,10,CECIL CRESCENT
11 CECIL CRESCENT,11,CECIL CRESCENT
22 CECIL CRESCENT,22,CECIL CRESCENT
24 CECIL CRESCENT,24,CECIL CRESCENT
39 CECIL CRESCENT,39,CECIL CRESCENT
41 CECIL CRESCENT,41,CECIL CRESCENT
69 CHARLES CRESCENT,69,CHARLES CRESCENT
200 COLLEGE AVENUE,200,COLLEGE AVENUE
201 COLLEGE AVENUE,201,COLLEGE AVENUE
208 COLLEGE AVENUE,208,COLLEGE AVENUE
217 COLLEGE AVENUE,217,COLLEGE AVENUE
228 COLLEGE AVENUE,228,COLLEGE AVENUE
235 COLLEGE AVENUE,235,COLLEGE AVENUE
303 COLLEGE AVENUE,303,COLLEGE AVENUE
320 COLLEGE AVENUE,320,COLLEGE AVENUE
439 COLLEGE AVENUE,439,COLLEGE AVENUE
505 COLLEGE AVENUE,505,COLLEGE AVENUE
1036 COLLEGE AVENUE,1036,COLLEGE AVENUE
2210 COLLEGE AVENUE,2210,COLLEGE AVENUE
2310 COLLEGE AVENUE,2310,COLLEGE AVENUE
2700 COLLEGE AVENUE,2700,COLLEGE AVENUE
2808 COLLEGE AVENUE,2808,COLLEGE AVENUE
2832 COLLEGE AVENUE,2832,COLLEGE AVENUE
2838 COLLEGE AVENUE,2838,COLLEGE AVENUE
2900 COLLEGE AVENUE,2900,COLLEGE AVENUE
2907 COLLEGE AVENUE,2907,COLLEGE AVENUE
2912 COLLEGE AVENUE,2912,COLLEGE AVENUE
2932 COLLEGE AVENUE,2932,COLLEGE AVENUE
2939 COLLEGE AVENUE,2939,COLLEGE AVENUE
3030 COLLEGE AVENUE,3030,COLLEGE AVENUE
3100 COLLEGE AVENUE,3100,COLLEGE AVENUE
3104 COLLEGE AVENUE,3104,COLLEGE AVENUE
3108 COLLEGE AVENUE,3108,COLLEGE AVENUE
3112 COLLEGE AVENUE,3112,COLLEGE AVENUE
3200 COLLEGE AVENUE,3200,COLLEGE AVENUE
3208 COLLEGE AVENUE,3208,COLLEGE AVENUE
3236 COLLEGE AVENUE,3236,COLLEGE AVENUE
3300 COLLEGE AVENUE,3300,COLLEGE AVENUE
3304 COLLEGE AVENUE,3304,COLLEGE AVENUE
3308 COLLEGE AVENUE,3308,COLLEGE AVENUE
3312 COLLEGE AVENUE,3312,COLLEGE AVENUE
3318 COLLEGE AVENUE,3318,COLLEGE AVENUE
3322 COLLEGE AVENUE,3322,COLLEGE AVENUE
3336 COLLEGE AVENUE,3336,COLLEGE AVENUE
3424 COLLEGE AVENUE,3424,COLLEGE AVENUE
3434 COLLEGE AVENUE,3434,COLLEGE AVENUE
3435 COLLEGE AVENUE,3435,COLLEGE AVENUE
75 CONNAUGHT CRESCENT,75,CONNAUGHT CRESCENT
79 CONNAUGHT CRESCENT,79,CONNAUGHT CRESCENT
108 CONNAUGHT CRESCENT,108,CONNAUGHT CRESCENT
1701 CONNAUGHT STREET,1701,CONNAUGHT STREET
1702 CONNAUGHT STREET,1702,CONNAUGHT STREET
1709 CONNAUGHT STREET,1709,CONNAUGHT STREET
1712 CONNAUGHT STREET,1712,CONNAUGHT STREET
1717 CONNAUGHT STREET,1717,CONNAUGHT STREET
1729 CONNAUGHT STREET,1729,CONNAUGHT STREET
1735 CONNAUGHT STREET,1735,CONNAUGHT STREET
1736 CONNAUGHT STREET,1736,CONNAUGHT STREET
1743 CONNAUGHT STREET,1743,CONNAUGHT STREET
1750 CONNAUGHT STREET,1750,CONNAUGHT STREET
1753 CONNAUGHT STREET,1753,CONNAUGHT STREET
1758 CONNAUGHT STREET,1758,CONNAUGHT STREET
1773 CONNAUGHT STREET,1773,CONNAUGHT STREET
1821 CONNAUGHT STREET,1821,CONNAUGHT STREET
1825 CONNAUGHT STREET,1825,CONNAUGHT STREET
1829 CONNAUGHT STREET,1829,CONNAUGHT STREET
1845 CONNAUGHT STREET,1845,CONNAUGHT STREET
1855 CONNAUGHT STREET,1855,CONNAUGHT STREET
1869 CONNAUGHT STREET,1869,CONNAUGHT STREET
1902 CONNAUGHT STREET,1902,CONNAUGHT STREET
1903 CONNAUGHT STREET,1903,CONNAUGHT STREET
1910 CONNAUGHT STREET,1910,CONNAUGHT STREET
1916 CONNAUGHT STREET,1916,CONNAUGHT STREET
1922 CONNAUGHT STREET,1922,CONNAUGHT STREET
1928 CONNAUGHT STREET,1928,CONNAUGHT STREET
1936 CONNAUGHT STREET,1936,CONNAUGHT STREET
1175 CORNWALL STREET,1175,CORNWALL STREET
1238 CORNWALL STREET,1238,CORNWALL STREET
1244 CORNWALL STREET,1244,CORNWALL STREET
1250 CORNWALL STREET,1250,CORNWALL STREET
1304 CORNWALL STREET,1304,CORNWALL STREET
1347 CORNWALL STREET,1347,CORNWALL STREET
1375 CORNWALL STREET,1375,CORNWALL STREET
1411 CORNWALL STREET,1411,CORNWALL STREET
1426 CORNWALL STREET,1426,CORNWALL STREET
1431 CORNWALL STREET,1431,CORNWALL STREET
1435 CORNWALL STREET,1435,CORNWALL STREET
1449 CORNWALL STREET,1449,CORNWALL STREET
1450 CORNWALL STREET,1450,CORNWALL STREET
1819 CORNWALL STREET,1819,CORNWALL STREET
1820 CORNWALL STREET,1820,CORNWALL STREET
1825 CORNWALL STREET,1825,CORNWALL STREET
1840 CORNWALL STREET,1840,CORNWALL STREET
2144 CORNWALL STREET,2144,CORNWALL STREET
2167 CORNWALL STREET,2167,CORNWALL STREET
2326 CORNWALL STREET,2326,CORNWALL STREET
1364 CORNWALL STREET,1364,CORNWALL STREET
29 COVENTRY CRESCENT,29,COVENTRY CRESCENT
37 COVENTRY ROAD,37,COVENTRY ROAD
39 COVENTRY ROAD,39,COVENTRY ROAD
41 COVENTRY ROAD,41,COVENTRY ROAD
43 COVENTRY ROAD,43,COVENTRY ROAD
45 COVENTRY ROAD,45,COVENTRY ROAD
518 DEWDNEY AVENUE,518,DEWDNEY AVENUE
522 DEWDNEY AVENUE,522,DEWDNEY AVENUE
530 DEWDNEY AVENUE,530,DEWDNEY AVENUE
602 DEWDNEY AVENUE,602,DEWDNEY AVENUE
636 DEWDNEY AVENUE,636,DEWDNEY AVENUE
2002 DEWDNEY AVENUE,2002,DEWDNEY AVENUE
2300 DEWDNEY AVENUE,2300,DEWDNEY AVENUE
2338 DEWDNEY AVENUE,2338,DEWDNEY AVENUE
2506 DEWDNEY AVENUE,2506,DEWDNEY AVENUE
2725 DEWDNEY AVENUE,2725,DEWDNEY AVENUE
2735 DEWDNEY AVENUE,2735,DEWDNEY AVENUE
2903 DEWDNEY AVENUE,2903,DEWDNEY AVENUE
3038 DEWDNEY AVENUE,3038,DEWDNEY AVENUE
3119 DEWDNEY AVENUE,3119,DEWDNEY AVENUE
3134 DEWDNEY AVENUE,3134,DEWDNEY AVENUE
3204 DEWDNEY AVENUE,3204,DEWDNEY AVENUE
3214 DEWDNEY AVENUE,3214,DEWDNEY AVENUE
3435 DEWDNEY AVENUE,3435,DEWDNEY AVENUE
5000 DEWDNEY AVENUE,5000,DEWDNEY AVENUE
5318 DEWDNEY AVENUE,5318,DEWDNEY AVENUE
504 DEWDNEY AVENUE,504,DEWDNEY AVENUE
614 DEWDNEY AVENUE,614,DEWDNEY AVENUE
1920 EDGAR STREET,1920,EDGAR STREET
1928 EDGAR STREET,1928,EDGAR STREET
1933 EDGAR STREET,1933,EDGAR STREET
1936 EDGAR STREET,1936,EDGAR STREET
1944 EDGAR STREET,1944,EDGAR STREET
1959 EDGAR STREET,1959,EDGAR STREET
2026 EDGAR STREET,2026,EDGAR STREET
2035 EDGAR STREET,2035,EDGAR STREET
2041 EDGAR STREET,2041,EDGAR STREET
2044 EDGAR STREET,2044,EDGAR STREET
2048 EDGAR STREET,2048,EDGAR STREET
2061 EDGAR STREET,2061,EDGAR STREET
2066 EDGAR STREET,2066,EDGAR STREET
2074 EDGAR STREET,2074,EDGAR STREET
2080 EDGAR STREET,2080,EDGAR STREET
2103 EDGAR STREET,2103,EDGAR STREET
2104 EDGAR STREET,2104,EDGAR STREET
2108 EDGAR STREET,2108,EDGAR STREET
2112 EDGAR STREET,2112,EDGAR STREET
2120 EDGAR STREET,2120,EDGAR STREET
2139 EDGAR STREET,2139,EDGAR STREET
2141 EDGAR STREET,2141,EDGAR STREET
2145 EDGAR STREET,2145,EDGAR STREET
2151 EDGAR STREET,2151,EDGAR STREET
2155 EDGAR STREET,2155,EDGAR STREET
2156 EDGAR STREET,2156,EDGAR STREET
2157 EDGAR STREET,2157,EDGAR STREET
2160 EDGAR STREET,2160,EDGAR STREET
2164 EDGAR STREET,2164,EDGAR STREET
2169 EDGAR STREET,2169,EDGAR STREET
2170 EDGAR STREET,2170,EDGAR STREET
2173 EDGAR STREET,2173,EDGAR STREET
2200 EDGAR STREET,2200,EDGAR STREET
2208 EDGAR STREET,2208,EDGAR STREET
2240 EDGAR STREET,2240,EDGAR STREET
2250 EDGAR STREET,2250,EDGAR STREET
2256 EDGAR STREET,2256,EDGAR STREET
2260 EDGAR STREET,2260,EDGAR STREET
2266 EDGAR STREET,2266,EDGAR STREET
2268 EDGAR STREET,2268,EDGAR STREET
2302 EDGAR STREET,2302,EDGAR STREET
2310 EDGAR STREET,2310,EDGAR STREET
2312 EDGAR STREET,2312,EDGAR STREET
2316 EDGAR STREET,2316,EDGAR STREET
2328 EDGAR STREET,2328,EDGAR STREET
2344 EDGAR STREET,2344,EDGAR STREET
2442 EDGAR STREET,2442,EDGAR STREET
2447 EDGAR STREET,2447,EDGAR STREET
2448 EDGAR STREET,2448,EDGAR STREET
2468 EDGAR STREET,2468,EDGAR STREET
2469 EDGAR STREET,2469,EDGAR STREET
2480 EDGAR STREET,2480,EDGAR STREET
2500 EDGAR STREET,2500,EDGAR STREET
2508 EDGAR STREET,2508,EDGAR STREET
2530 EDGAR STREET,2530,EDGAR STREET
2608 EDGAR STREET,2608,EDGAR STREET
2610 EDGAR STREET,2610,EDGAR STREET
2616 EDGAR STREET,2616,EDGAR STREET
2618 EDGAR STREET,2618,EDGAR STREET
2624 EDGAR STREET,2624,EDGAR STREET
1956 EDGAR STREET,1956,EDGAR STREET
2067 EDGAR STREET,2067,EDGAR STREET
2075 EDGAR STREET,2075,EDGAR STREET
2101 EDWARD STREET,2101,EDWARD STREET
2117 EDWARD STREET,2117,EDWARD STREET
2131 EDWARD STREET,2131,EDWARD STREET
2141 EDWARD STREET,2141,EDWARD STREET
2167 EDWARD STREET,2167,EDWARD STREET
2177 EDWARD STREET,2177,EDWARD STREET
2600 ELLIOTT DRIVE,2600,ELLIOTT DRIVE
2602 ELLIOTT DRIVE,2602,ELLIOTT DRIVE
2604 ELLIOTT DRIVE,2604,ELLIOTT DRIVE
2606 ELLIOTT DRIVE,2606,ELLIOTT DRIVE
2609 ELLIOTT DRIVE,2609,ELLIOTT DRIVE
2610 ELLIOTT DRIVE,2610,ELLIOTT DRIVE
2613 ELLIOTT DRIVE,2613,ELLIOTT DRIVE
2614 ELLIOTT DRIVE,2614,ELLIOTT DRIVE
909 ELLIOTT STREET,909,ELLIOTT STREET
913 ELLIOTT STREET,913,ELLIOTT STREET
932 ELLIOTT STREET,932,ELLIOTT STREET
949 ELLIOTT STREET,949,ELLIOTT STREET
1007 ELLIOTT STREET,1007,ELLIOTT STREET
1110 ELLIOTT STREET,1110,ELLIOTT STREET
1112 ELLIOTT STREET,1112,ELLIOTT STREET
1118 ELLIOTT STREET,1118,ELLIOTT STREET
1120 ELLIOTT STREET,1120,ELLIOTT STREET
1220 ELLIOTT STREET,1220,ELLIOTT STREET
2015 ELLIOTT STREET,2015,ELLIOTT STREET
2028 ELLIOTT STREET,2028,ELLIOTT STREET
2058 ELLIOTT STREET,2058,ELLIOTT STREET
2059 ELLIOTT STREET,2059,ELLIOTT STREET
2124 ELLIOTT STREET,2124,ELLIOTT STREET
2139 ELLIOTT STREET,2139,ELLIOTT STREET
2144 ELLIOTT STREET,2144,ELLIOTT STREET
2153 ELLIOTT STREET,2153,ELLIOTT STREET
2155 ELLIOTT STREET,2155,ELLIOTT STREET
2171 ELLIOTT STREET,2171,ELLIOTT STREET
2179 ELLIOTT STREET,2179,ELLIOTT STREET
1524 ELPHINSTONE STREET,1524,ELPHINSTONE STREET
1525 ELPHINSTONE STREET,1525,ELPHINSTONE STREET
1530 ELPHINSTONE STREET,1530,ELPHINSTONE STREET
1533 ELPHINSTONE STREET,1533,ELPHINSTONE STREET
1535 ELPHINSTONE STREET,1535,ELPHINSTONE STREET
1541 ELPHINSTONE STREET,1541,ELPHINSTONE STREET
1548 ELPHINSTONE STREET,1548,ELPHINSTONE STREET
1554 ELPHINSTONE STREET,1554,ELPHINSTONE STREET
1576 ELPHINSTONE STREET,1576,ELPHINSTONE STREET
1952 ELPHINSTONE STREET,1952,ELPHINSTONE STREET
2025 ELPHINSTONE STREET,2025,ELPHINSTONE STREET
2029 ELPHINSTONE STREET,2029,ELPHINSTONE STREET
2035 ELPHINSTONE STREET,2035,ELPHINSTONE STREET
2054 ELPHINSTONE STREET,2054,ELPHINSTONE STREET
2056 ELPHINSTONE STREET,2056,ELPHINSTONE STREET
2059 ELPHINSTONE STREET,2059,ELPHINSTONE STREET
2139 ELPHINSTONE STREET,2139,ELPHINSTONE STREET
2155 ELPHINSTONE STREET,2155,ELPHINSTONE STREET
2161 ELPHINSTONE STREET,2161,ELPHINSTONE STREET
2201 ELPHINSTONE STREET,2201,ELPHINSTONE STREET
2210 ELPHINSTONE STREET,2210,ELPHINSTONE STREET
2212 ELPHINSTONE STREET,2212,ELPHINSTONE STREET
2225 ELPHINSTONE STREET,2225,ELPHINSTONE STREET
2230 ELPHINSTONE STREET,2230,ELPHINSTONE STREET
2234 ELPHINSTONE STREET,2234,ELPHINSTONE STREET
2238 ELPHINSTONE STREET,2238,ELPHINSTONE STREET
2242 ELPHINSTONE STREET,2242,ELPHINSTONE STREET
2256 ELPHINSTONE STREET,2256,ELPHINSTONE STREET
2264 ELPHINSTONE STREET,2264,ELPHINSTONE STREET
2274 ELPHINSTONE STREET,2274,ELPHINSTONE STREET
2278 ELPHINSTONE STREET,2278,ELPHINSTONE STREET
2302 ELPHINSTONE STREET,2302,ELPHINSTONE STREET
2311 ELPHINSTONE STREET,2311,ELPHINSTONE STREET
2316 ELPHINSTONE STREET,2316,ELPHINSTONE STREET
2317 ELPHINSTONE STREET,2317,ELPHINSTONE STREET
2320 ELPHINSTONE STREET,2320,ELPHINSTONE STREET
2323 ELPHINSTONE STREET,2323,ELPHINSTONE STREET
2325 ELPHINSTONE STREET,2325,ELPHINSTONE STREET
2326 ELPHINSTONE STREET,2326,ELPHINSTONE STREET
2336 ELPHINSTONE STREET,2336,ELPHINSTONE STREET
2341 ELPHINSTONE STREET,2341,ELPHINSTONE STREET
2345 ELPHINSTONE STREET,2345,ELPHINSTONE STREET
1922 ELPHINSTONE STREET,1922,ELPHINSTONE STREET
1733 EMPRESS STREET,1733,EMPRESS STREET
1458 FORGET STREET,1458,FORGET STREET
818 GARNET STREET,818,GARNET STREET
832 GARNET STREET,832,GARNET STREET
839 GARNET STREET,839,GARNET STREET
842 GARNET STREET,842,GARNET STREET
845 GARNET STREET,845,GARNET STREET
856 GARNET STREET,856,GARNET STREET
860 GARNET STREET,860,GARNET STREET
863 GARNET STREET,863,GARNET STREET
864 GARNET STREET,864,GARNET STREET
868 GARNET STREET,868,GARNET STREET
871 GARNET STREET,871,GARNET STREET
872 GARNET STREET,872,GARNET STREET
875 GARNET STREET,875,GARNET STREET
900 GARNET STREET,900,GARNET STREET
912 GARNET STREET,912,GARNET STREET
918 GARNET STREET,918,GARNET STREET
924 GARNET STREET,924,GARNET STREET
948 GARNET STREET,948,GARNET STREET
950 GARNET STREET,950,GARNET STREET
952 GARNET STREET,952,GARNET STREET
954 GARNET STREET,954,GARNET STREET
964 GARNET STREET,964,GARNET STREET
972 GARNET STREET,972,GARNET STREET
1007 GARNET STREET,1007,GARNET STREET
1009 GARNET STREET,1009,GARNET STREET
1010 GARNET STREET,1010,GARNET STREET
1026 GARNET STREET,1026,GARNET STREET
1035 GARNET STREET,1035,GARNET STREET
1037 GARNET STREET,1037,GARNET STREET
1045 GARNET STREET,1045,GARNET STREET
1050 GARNET STREET,1050,GARNET STREET
1056 GARNET STREET,1056,GARNET STREET
1057 GARNET STREET,1057,GARNET STREET
1060 GARNET STREET,1060,GARNET STREET
1061 GARNET STREET,1061,GARNET STREET
1074 GARNET STREET,1074,GARNET STREET
1077 GARNET STREET,1077,GARNET STREET
1078 GARNET STREET,1078,GARNET STREET
1102 GARNET STREET,1102,GARNET STREET
1108 GARNET STREET,1108,GARNET STREET
1111 GARNET STREET,1111,GARNET STREET
1112 GARNET STREET,1112,GARNET STREET
1118 GARNET STREET,1118,GARNET STREET
1120 GARNET STREET,1120,GARNET STREET
1124 GARNET STREET,1124,GARNET STREET
1128 GARNET STREET,1128,GARNET STREET
1133 GARNET STREET,1133,GARNET STREET
1135 GARNET STREET,1135,GARNET STREET
1136 GARNET STREET,1136,GARNET STREET
1140 GARNET STREET,1140,GARNET STREET
1145 GARNET STREET,1145,GARNET STREET
1147 GARNET STREET,1147,GARNET STREET
1149 GARNET STREET,1149,GARNET STREET
1156 GARNET STREET,1156,GARNET STREET
1157 GARNET STREET,1157,GARNET STREET
1159 GARNET STREET,1159,GARNET STREET
1165 GARNET STREET,1165,GARNET STREET
1169 GARNET STREET,1169,GARNET STREET
1221 GARNET STREET,1221,GARNET STREET
1224 GARNET STREET,1224,GARNET STREET
1229 GARNET STREET,1229,GARNET STREET
1236 GARNET STREET,1236,GARNET STREET
1239 GARNET STREET,1239,GARNET STREET
1240 GARNET STREET,1240,GARNET STREET
1245 GARNET STREET,1245,GARNET STREET
1249 GARNET STREET,1249,GARNET STREET
1255 GARNET STREET,1255,GARNET STREET
1300 GARNET STREET,1300,GARNET STREET
1301 GARNET STREET,1301,GARNET STREET
1323 GARNET STREET,1323,GARNET STREET
1328 GARNET STREET,1328,GARNET STREET
1332 GARNET STREET,1332,GARNET STREET
1336 GARNET STREET,1336,GARNET STREET
1344 GARNET STREET,1344,GARNET STREET
1345 GARNET STREET,1345,GARNET STREET
1349 GARNET STREET,1349,GARNET STREET
1350 GARNET STREET,1350,GARNET STREET
1355 GARNET STREET,1355,GARNET STREET
1356 GARNET STREET,1356,GARNET STREET
1360 GARNET STREET,1360,GARNET STREET
1366 GARNET STREET,1366,GARNET STREET
1368 GARNET STREET,1368,GARNET STREET
1369 GARNET STREET,1369,GARNET STREET
1379 GARNET STREET,1379,GARNET STREET
1401 GARNET STREET,1401,GARNET STREET
1404 GARNET STREET,1404,GARNET STREET
1409 GARNET STREET,1409,GARNET STREET
1411 GARNET STREET,1411,GARNET STREET
1415 GARNET STREET,1415,GARNET STREET
1420 GARNET STREET,1420,GARNET STREET
1424 GARNET STREET,1424,GARNET STREET
1425 GARNET STREET,1425,GARNET STREET
1443 GARNET STREET,1443,GARNET STREET
1445 GARNET STREET,1445,GARNET STREET
1448 GARNET STREET,1448,GARNET STREET
1449 GARNET STREET,1449,GARNET STREET
1451 GARNET STREET,1451,GARNET STREET
1452 GARNET STREET,1452,GARNET STREET
1458 GARNET STREET,1458,GARNET STREET
1459 GARNET STREET,1459,GARNET STREET
1526 GARNET STREET,1526,GARNET STREET
1529 GARNET STREET,1529,GARNET STREET
1530 GARNET STREET,1530,GARNET STREET
1533 GARNET STREET,1533,GARNET STREET
1534 GARNET STREET,1534,GARNET STREET
1538 GARNET STREET,1538,GARNET STREET
1543 GARNET STREET,1543,GARNET STREET
1547 GARNET STREET,1547,GARNET STREET
1554 GARNET STREET,1554,GARNET STREET
1556 GARNET STREET,1556,GARNET STREET
1559 GARNET STREET,1559,GARNET STREET
1563 GARNET STREET,1563,GARNET STREET
1572 GARNET STREET,1572,GARNET STREET
1600 GARNET STREET,1600,GARNET STREET
1606 GARNET STREET,1606,GARNET STREET
1614 GARNET STREET,1614,GARNET STREET
1640 GARNET STREET,1640,GARNET STREET
1649 GARNET STREET,1649,GARNET STREET
1650 GARNET STREET,1650,GARNET STREET
1656 GARNET STREET,1656,GARNET STREET
1676 GARNET STREET,1676,GARNET STREET
1800 GARNET STREET,1800,GARNET STREET
1853 GARNET STREET,1853,GARNET STREET
1905 GARNET STREET,1905,GARNET STREET
1917 GARNET STREET,1917,GARNET STREET
1923 GARNET STREET,1923,GARNET STREET
1930 GARNET STREET,1930,GARNET STREET
1932 GARNET STREET,1932,GARNET STREET
1935 GARNET STREET,1935,GARNET STREET
1937 GARNET STREET,1937,GARNET STREET
1945 GARNET STREET,1945,GARNET STREET
2026 GARNET STREET,2026,GARNET STREET
2046 GARNET STREET,2046,GARNET STREET
2050 GARNET STREET,2050,GARNET STREET
2054 GARNET STREET,2054,GARNET STREET
2060 GARNET STREET,2060,GARNET STREET
2212 GARNET STREET,2212,GARNET STREET
2226 GARNET STREET,2226,GARNET STREET
2227 GARNET STREET,2227,GARNET STREET
2235 GARNET STREET,2235,GARNET STREET
2238 GARNET STREET,2238,GARNET STREET
2240 GARNET STREET,2240,GARNET STREET
2244 GARNET STREET,2244,GARNET STREET
2245 GARNET STREET,2245,GARNET STREET
2250 GARNET STREET,2250,GARNET STREET
2251 GARNET STREET,2251,GARNET STREET
2254 GARNET STREET,2254,GARNET STREET
2259 GARNET STREET,2259,GARNET STREET
2270 GARNET STREET,2270,GARNET STREET
2277 GARNET STREET,2277,GARNET STREET
2301 GARNET STREET,2301,GARNET STREET
2308 GARNET STREET,2308,GARNET STREET
2311 GARNET STREET,2311,GARNET STREET
2315 GARNET STREET,2315,GARNET STREET
2317 GARNET STREET,2317,GARNET STREET
2327 GARNET STREET,2327,GARNET STREET
2330 GARNET STREET,2330,GARNET STREET
2331 GARNET STREET,2331,GARNET STREET
2339 GARNET STREET,2339,GARNET STREET
2340 GARNET STREET,2340,GARNET STREET
2347 GARNET STREET,2347,GARNET STREET
2348 GARNET STREET,2348,GARNET STREET
2357 GARNET STREET,2357,GARNET STREET
2404 GARNET STREET,2404,GARNET STREET
2410 GARNET STREET,2410,GARNET STREET
2456 GARNET STREET,2456,GARNET STREET
2500 GARNET STREET,2500,GARNET STREET
2525 GARNET STREET,2525,GARNET STREET
2529 GARNET STREET,2529,GARNET STREET
2535 GARNET STREET,2535,GARNET STREET
2539 GARNET STREET,2539,GARNET STREET
2543 GARNET STREET,2543,GARNET STREET
2565 GARNET STREET,2565,GARNET STREET
2575 GARNET STREET,2575,GARNET STREET
2609 GARNET STREET,2609,GARNET STREET
2671 GARNET STREET,2671,GARNET STREET
2677 GARNET STREET,2677,GARNET STREET
2879 GARNET STREET,2879,GARNET STREET
1064 GARNET STREET,1064,GARNET STREET
1143 GARNET STREET,1143,GARNET STREET
1202 GARNET STREET,1202,GARNET STREET
1220 GARNET STREET,1220,GARNET STREET
932 GARNET STREET,932,GARNET STREET
1455 GREY STREET,1455,GREY STREET
1600 HALIFAX STREET,1600,HALIFAX STREET
1609 HALIFAX STREET,1609,HALIFAX STREET
1626 HALIFAX STREET,1626,HALIFAX STREET
1631 HALIFAX STREET,1631,HALIFAX STREET
1711 HALIFAX STREET,1711,HALIFAX STREET
1757 HALIFAX STREET,1757,HALIFAX STREET
1759 HALIFAX STREET,1759,HALIFAX STREET
1807 HALIFAX STREET,1807,HALIFAX STREET
1813 HALIFAX STREET,1813,HALIFAX STREET
1817 HALIFAX STREET,1817,HALIFAX STREET
1835 HALIFAX STREET,1835,HALIFAX STREET
1850 HALIFAX STREET,1850,HALIFAX STREET
1857 HALIFAX STREET,1857,HALIFAX STREET
1858 HALIFAX STREET,1858,HALIFAX STREET
1863 HALIFAX STREET,1863,HALIFAX STREET
1877 HALIFAX STREET,1877,HALIFAX STREET
1909 HALIFAX STREET,1909,HALIFAX STREET
1914 HALIFAX STREET,1914,HALIFAX STREET
1919 HALIFAX STREET,1919,HALIFAX STREET
1921 HALIFAX STREET,1921,HALIFAX STREET
1927 HALIFAX STREET,1927,HALIFAX STREET
1930 HALIFAX STREET,1930,HALIFAX STREET
1950 HALIFAX STREET,1950,HALIFAX STREET
1958 HALIFAX STREET,1958,HALIFAX STREET
2039 HALIFAX STREET,2039,HALIFAX STREET
2101 HALIFAX STREET,2101,HALIFAX STREET
2118 HALIFAX STREET,2118,HALIFAX STREET
2125 HALIFAX STREET,2125,HALIFAX STREET
2126 HALIFAX STREET,2126,HALIFAX STREET
2127 HALIFAX STREET,2127,HALIFAX STREET
2134 HALIFAX STREET,2134,HALIFAX STREET
2140 HALIFAX STREET,2140,HALIFAX STREET
2144 HALIFAX STREET,2144,HALIFAX STREET
2148 HALIFAX STREET,2148,HALIFAX STREET
2152 HALIFAX STREET,2152,HALIFAX STREET
2166 HALIFAX STREET,2166,HALIFAX STREET
2170 HALIFAX STREET,2170,HALIFAX STREET
2174 HALIFAX STREET,2174,HALIFAX STREET
2200 HALIFAX STREET,2200,HALIFAX STREET
2226 HALIFAX STREET,2226,HALIFAX STREET
2228 HALIFAX STREET,2228,HALIFAX STREET
2300 HALIFAX STREET,2300,HALIFAX STREET
2301 HALIFAX STREET,2301,HALIFAX STREET
2312 HALIFAX STREET,2312,HALIFAX STREET
2318 HALIFAX STREET,2318,HALIFAX STREET
2321 HALIFAX STREET,2321,HALIFAX STREET
2323 HALIFAX STREET,2323,HALIFAX STREET
2324 HALIFAX STREET,2324,HALIFAX STREET
2329 HALIFAX STREET,2329,HALIFAX STREET
2335 HALIFAX STREET,2335,HALIFAX STREET
2339 HALIFAX STREET,2339,HALIFAX STREET
2349 HALIFAX STREET,2349,HALIFAX STREET
1647 HALIFAX STREET,1647,HALIFAX STREET
1870 HALIFAX STREET,1870,HALIFAX STREET
1923 HALIFAX STREET,1923,HALIFAX STREET
1938 HALIFAX STREET,1938,HALIFAX STREET
1940 HALIFAX STREET,1940,HALIFAX STREET
1378 HAMILTON STREET,1378,HAMILTON STREET
1867 HAMILTON STREET,1867,HAMILTON STREET
1871 HAMILTON STREET,1871,HAMILTON STREET
1954 HAMILTON STREET,1954,HAMILTON STREET
2128 HAMILTON STREET,2128,HAMILTON STREET
2140 HAMILTON STREET,2140,HAMILTON STREET
2174 HAMILTON STREET,2174,HAMILTON STREET
2736 HILL AVENUE,2736,HILL AVENUE
2814 HILL AVENUE,2814,HILL AVENUE
2834 HILL AVENUE,2834,HILL AVENUE
2918 HILL AVENUE,2918,HILL AVENUE
2936 HILL AVENUE,2936,HILL AVENUE
3028 HILL AVENUE,3028,HILL AVENUE
303 HOLLAND AVENUE,303,HOLLAND AVENUE
307 HOLLAND AVENUE,307,HOLLAND AVENUE
403 HOLLAND AVENUE,403,HOLLAND AVENUE
405 HOLLAND AVENUE,405,HOLLAND AVENUE
413 HOLLAND AVENUE,413,HOLLAND AVENUE
415 HOLLAND AVENUE,415,HOLLAND AVENUE
417 HOLLAND AVENUE,417,HOLLAND AVENUE
1552 HORACE STREET,1552,HORACE STREET
3 INGERSOLL CRESCENT,3,INGERSOLL CRESCENT
654 KING STREET,654,KING STREET
710 KING STREET,710,KING STREET
751 KING STREET,751,KING STREET
755 KING STREET,755,KING STREET
759 KING STREET,759,KING STREET
761 KING STREET,761,KING STREET
1015 KING STREET,1015,KING STREET
1020 KING STREET,1020,KING STREET
1044 KING STREET,1044,KING STREET
1053 KING STREET,1053,KING STREET
1057 KING STREET,1057,KING STREET
1065 KING STREET,1065,KING STREET
1071 KING STREET,1071,KING STREET
1109 KING STREET,1109,KING STREET
1115 KING STREET,1115,KING STREET
1121 KING STREET,1121,KING STREET
1132 KING STREET,1132,KING STREET
1150 KING STREET,1150,KING STREET
1163 KING STREET,1163,KING STREET
1171 KING STREET,1171,KING STREET
1177 KING STREET,1177,KING STREET
1235 KING STREET,1235,KING STREET
1241 KING STREET,1241,KING STREET
1250 KING STREET,1250,KING STREET
1252 KING STREET,1252,KING STREET
1256 KING STREET,1256,KING STREET
1259 KING STREET,1259,KING STREET
1265 KING STREET,1265,KING STREET
1271 KING STREET,1271,KING STREET
1304 KING STREET,1304,KING STREET
1311 KING STREET,1311,KING STREET
1317 KING STREET,1317,KING STREET
1331 KING STREET,1331,KING STREET
1345 KING STREET,1345,KING STREET
1351 KING STREET,1351,KING STREET
1352 KING STREET,1352,KING STREET
1355 KING STREET,1355,KING STREET
1415 KING STREET,1415,KING STREET
1420 KING STREET,1420,KING STREET
1434 KING STREET,1434,KING STREET
1435 KING STREET,1435,KING STREET
1437 KING STREET,1437,KING STREET
1439 KING STREET,1439,KING STREET
1441 KING STREET,1441,KING STREET
1443 KING STREET,1443,KING STREET
1454 KING STREET,1454,KING STREET
1458 KING STREET,1458,KING STREET
2022 KING STREET,2022,KING STREET
2030 KING STREET,2030,KING STREET
2064 KING STREET,2064,KING STREET
2069 KING STREET,2069,KING STREET
2074 KING STREET,2074,KING STREET
2101 KING STREET,2101,KING STREET
2121 KING STREET,2121,KING STREET
2141 KING STREET,2141,KING STREET
2201 KING STREET,2201,KING STREET
2211 KING STREET,2211,KING STREET
2215 KING STREET,2215,KING STREET
2235 KING STREET,2235,KING STREET
75 LEOPOLD CRESCENT,75,LEOPOLD CRESCENT
93 LEOPOLD CRESCENT,93,LEOPOLD CRESCENT
101 LEOPOLD CRESCENT,101,LEOPOLD CRESCENT
120 LEOPOLD CRESCENT,120,LEOPOLD CRESCENT
131 LEOPOLD CRESCENT,131,LEOPOLD CRESCENT
141 LEOPOLD CRESCENT,141,LEOPOLD CRESCENT
160 LEOPOLD CRESCENT,160,LEOPOLD CRESCENT
165 LEOPOLD CRESCENT,165,LEOPOLD CRESCENT
179 LEOPOLD CRESCENT,179,LEOPOLD CRESCENT
185 LEOPOLD CRESCENT,185,LEOPOLD CRESCENT
191 LEOPOLD CRESCENT,191,LEOPOLD CRESCENT
198 LEOPOLD CRESCENT,198,LEOPOLD CRESCENT
223 LEOPOLD CRESCENT,223,LEOPOLD CRESCENT
233 LEOPOLD CRESCENT,233,LEOPOLD CRESCENT
234 LEOPOLD CRESCENT,234,LEOPOLD CRESCENT
238 LEOPOLD CRESCENT,238,LEOPOLD CRESCENT
252 LEOPOLD CRESCENT,252,LEOPOLD CRESCENT
256 LEOPOLD CRESCENT,256,LEOPOLD CRESCENT
260 LEOPOLD CRESCENT,260,LEOPOLD CRESCENT
264 LEOPOLD CRESCENT,264,LEOPOLD CRESCENT
269 LEOPOLD CRESCENT,269,LEOPOLD CRESCENT
275 LEOPOLD CRESCENT,275,LEOPOLD CRESCENT
280 LEOPOLD CRESCENT,280,LEOPOLD CRESCENT
281 LEOPOLD CRESCENT,281,LEOPOLD CRESCENT
289 LEOPOLD CRESCENT,289,LEOPOLD CRESCENT
295 LEOPOLD CRESCENT,295,LEOPOLD CRESCENT
301 LEOPOLD CRESCENT,301,LEOPOLD CRESCENT
323 LEOPOLD CRESCENT,323,LEOPOLD CRESCENT
351 LEOPOLD CRESCENT,351,LEOPOLD CRESCENT
365 LEOPOLD CRESCENT,365,LEOPOLD CRESCENT
371 LEOPOLD CRESCENT,371,LEOPOLD CRESCENT
411 LEOPOLD CRESCENT,411,LEOPOLD CRESCENT
441 LEOPOLD CRESCENT,441,LEOPOLD CRESCENT
924 LINDSAY STREET,924,LINDSAY STREET
928 LINDSAY STREET,928,LINDSAY STREET
933 LINDSAY STREET,933,LINDSAY STREET
2042 LINDSAY STREET,2042,LINDSAY STREET
2050 LINDSAY STREET,2050,LINDSAY STREET
2058 LINDSAY STREET,2058,LINDSAY STREET
2062 LINDSAY STREET,2062,LINDSAY STREET
2068 LINDSAY STREET,2068,LINDSAY STREET
2074 LINDSAY STREET,2074,LINDSAY STREET
2100 LINDSAY STREET,2100,LINDSAY STREET
2105 LINDSAY STREET,2105,LINDSAY STREET
2111 LINDSAY STREET,2111,LINDSAY STREET
2118 LINDSAY STREET,2118,LINDSAY STREET
2134 LINDSAY STREET,2134,LINDSAY STREET
2141 LINDSAY STREET,2141,LINDSAY STREET
2156 LINDSAY STREET,2156,LINDSAY STREET
2170 LINDSAY STREET,2170,LINDSAY STREET
2176 LINDSAY STREET,2176,LINDSAY STREET
2203 LINDSAY STREET,2203,LINDSAY STREET
2205 LINDSAY STREET,2205,LINDSAY STREET
2219 LINDSAY STREET,2219,LINDSAY STREET
2255 LINDSAY STREET,2255,LINDSAY STREET
2263 LINDSAY STREET,2263,LINDSAY STREET
2301 LINDSAY STREET,2301,LINDSAY STREET
2310 LINDSAY STREET,2310,LINDSAY STREET
2316 LINDSAY STREET,2316,LINDSAY STREET
2330 LINDSAY STREET,2330,LINDSAY STREET
2333 LINDSAY STREET,2333,LINDSAY STREET
2336 LINDSAY STREET,2336,LINDSAY STREET
2342 LINDSAY STREET,2342,LINDSAY STREET
2422 LINDSAY STREET,2422,LINDSAY STREET
2428 LINDSAY STREET,2428,LINDSAY STREET
2442 LINDSAY STREET,2442,LINDSAY STREET
2464 LINDSAY STREET,2464,LINDSAY STREET
2600 LINDSAY STREET,2600,LINDSAY STREET
2602 LINDSAY STREET,2602,LINDSAY STREET
2606 LINDSAY STREET,2606,LINDSAY STREET
2608 LINDSAY STREET,2608,LINDSAY STREET
2610 LINDSAY STREET,2610,LINDSAY STREET
2618 LINDSAY STREET,2618,LINDSAY STREET
2620 LINDSAY STREET,2620,LINDSAY STREET
2622 LINDSAY STREET,2622,LINDSAY STREET
1309 LORNE STREET,1309,LORNE STREET
1329 LORNE STREET,1329,LORNE STREET
1350 LORNE STREET,1350,LORNE STREET
1355 LORNE STREET,1355,LORNE STREET
1370 LORNE STREET,1370,LORNE STREET
1375 LORNE STREET,1375,LORNE STREET
2058 LORNE STREET,2058,LORNE STREET
2110 LORNE STREET,2110,LORNE STREET
2248 LORNE STREET,2248,LORNE STREET
2255 LORNE STREET,2255,LORNE STREET
2334 LORNE STREET,2334,LORNE STREET
2340 LORNE STREET,2340,LORNE STREET
2215 LORNE STREET,2215,LORNE STREET
2022 MACKAY STREET,2022,MACKAY STREET
2717 MCCALLUM AVENUE,2717,MCCALLUM AVENUE
2026 MCDONALD STREET,2026,MCDONALD STREET
2034 MCDONALD STREET,2034,MCDONALD STREET
2058 MCDONALD STREET,2058,MCDONALD STREET
2062 MCDONALD STREET,2062,MCDONALD STREET
1326 MCINTOSH STREET,1326,MCINTOSH STREET
1356 MCINTOSH STREET,1356,MCINTOSH STREET
1422 MCINTOSH STREET,1422,MCINTOSH STREET
1426 MCINTOSH STREET,1426,MCINTOSH STREET
1428 MCINTOSH STREET,1428,MCINTOSH STREET
1431 MCINTOSH STREET,1431,MCINTOSH STREET
1443 MCINTOSH STREET,1443,MCINTOSH STREET
1700 MCINTOSH STREET,1700,MCINTOSH STREET
1728 MCINTOSH STREET,1728,MCINTOSH STREET
1736 MCINTOSH STREET,1736,MCINTOSH STREET
1358 MCINTYRE STREET,1358,MCINTYRE STREET
1400 MCINTYRE STREET,1400,MCINTYRE STREET
1425 MCINTYRE STREET,1425,MCINTYRE STREET
1718 MCINTYRE STREET,1718,MCINTYRE STREET
2072 MCINTYRE STREET,2072,MCINTYRE STREET
2128 MCINTYRE STREET,2128,MCINTYRE STREET
2154 MCINTYRE STREET,2154,MCINTYRE STREET
2168 MCINTYRE STREET,2168,MCINTYRE STREET
2204 MCINTYRE STREET,2204,MCINTYRE STREET
2205 MCINTYRE STREET,2205,MCINTYRE STREET
2212 MCINTYRE STREET,2212,MCINTYRE STREET
2256 MCINTYRE STREET,2256,MCINTYRE STREET
2334 MCINTYRE STREET,2334,MCINTYRE STREET
2340 MCINTYRE STREET,2340,MCINTYRE STREET
2353 MCINTYRE STREET,2353,MCINTYRE STREET
2064 MCINTYRE STREET,2064,MCINTYRE STREET
1055 MCTAVISH STREET,1055,MCTAVISH STREET
1063 MCTAVISH STREET,1063,MCTAVISH STREET
1327 MCTAVISH STREET,1327,MCTAVISH STREET
1350 MCTAVISH STREET,1350,MCTAVISH STREET
1456 MCTAVISH STREET,1456,MCTAVISH STREET
1522 MCTAVISH STREET,1522,MCTAVISH STREET
1526 MCTAVISH STREET,1526,MCTAVISH STREET
1548 MCTAVISH STREET,1548,MCTAVISH STREET
1549 MCTAVISH STREET,1549,MCTAVISH STREET
1555 MCTAVISH STREET,1555,MCTAVISH STREET
1561 MCTAVISH STREET,1561,MCTAVISH STREET
1565 MCTAVISH STREET,1565,MCTAVISH STREET
1935 MCTAVISH STREET,1935,MCTAVISH STREET
1941 MCTAVISH STREET,1941,MCTAVISH STREET
1947 MCTAVISH STREET,1947,MCTAVISH STREET
1953 MCTAVISH STREET,1953,MCTAVISH STREET
1957 MCTAVISH STREET,1957,MCTAVISH STREET
2030 MCTAVISH STREET,2030,MCTAVISH STREET
2041 MCTAVISH STREET,2041,MCTAVISH STREET
2045 MCTAVISH STREET,2045,MCTAVISH STREET
2049 MCTAVISH STREET,2049,MCTAVISH STREET
2050 MCTAVISH STREET,2050,MCTAVISH STREET
2059 MCTAVISH STREET,2059,MCTAVISH STREET
2067 MCTAVISH STREET,2067,MCTAVISH STREET
2071 MCTAVISH STREET,2071,MCTAVISH STREET
2081 MCTAVISH STREET,2081,MCTAVISH STREET
2128 MCTAVISH STREET,2128,MCTAVISH STREET
2139 MCTAVISH STREET,2139,MCTAVISH STREET
2141 MCTAVISH STREET,2141,MCTAVISH STREET
2145 MCTAVISH STREET,2145,MCTAVISH STREET
2150 MCTAVISH STREET,2150,MCTAVISH STREET
2165 MCTAVISH STREET,2165,MCTAVISH STREET
2166 MCTAVISH STREET,2166,MCTAVISH STREET
2167 MCTAVISH STREET,2167,MCTAVISH STREET
2172 MCTAVISH STREET,2172,MCTAVISH STREET
2178 MCTAVISH STREET,2178,MCTAVISH STREET
2179 MCTAVISH STREET,2179,MCTAVISH STREET
2200 MCTAVISH STREET,2200,MCTAVISH STREET
2217 MCTAVISH STREET,2217,MCTAVISH STREET
2226 MCTAVISH STREET,2226,MCTAVISH STREET
2227 MCTAVISH STREET,2227,MCTAVISH STREET
2240 MCTAVISH STREET,2240,MCTAVISH STREET
2251 MCTAVISH STREET,2251,MCTAVISH STREET
2254 MCTAVISH STREET,2254,MCTAVISH STREET
2260 MCTAVISH STREET,2260,MCTAVISH STREET
2264 MCTAVISH STREET,2264,MCTAVISH STREET
2 MERRITT CRESCENT,2,MERRITT CRESCENT
4 MERRITT CRESCENT,4,MERRITT CRESCENT
5 MERRITT CRESCENT,5,MERRITT CRESCENT
6 MERRITT CRESCENT,6,MERRITT CRESCENT
7 MERRITT CRESCENT,7,MERRITT CRESCENT
9 MERRITT CRESCENT,9,MERRITT CRESCENT
11 MERRITT CRESCENT,11,MERRITT CRESCENT
13 MERRITT CRESCENT,13,MERRITT CRESCENT
15 MERRITT CRESCENT,15,MERRITT CRESCENT
23 MERRITT CRESCENT,23,MERRITT CRESCENT
33 MERRITT CRESCENT,33,MERRITT CRESCENT
34 MERRITT CRESCENT,34,MERRITT CRESCENT
35 MERRITT CRESCENT,35,MERRITT CRESCENT
36 MERRITT CRESCENT,36,MERRITT CRESCENT
38 MERRITT CRESCENT,38,MERRITT CRESCENT
901 MONTAGUE STREET,901,MONTAGUE STREET
916 MONTAGUE STREET,916,MONTAGUE STREET
959 MONTAGUE STREET,959,MONTAGUE STREET
963 MONTAGUE STREET,963,MONTAGUE STREET
965 MONTAGUE STREET,965,MONTAGUE STREET
966 MONTAGUE STREET,966,MONTAGUE STREET
1012 MONTAGUE STREET,1012,MONTAGUE STREET
1020 MONTAGUE STREET,1020,MONTAGUE STREET
1026 MONTAGUE STREET,1026,MONTAGUE STREET
1046 MONTAGUE STREET,1046,MONTAGUE STREET
1047 MONTAGUE STREET,1047,MONTAGUE STREET
1049 MONTAGUE STREET,1049,MONTAGUE STREET
1066 MONTAGUE STREET,1066,MONTAGUE STREET
1073 MONTAGUE STREET,1073,MONTAGUE STREET
1078 MONTAGUE STREET,1078,MONTAGUE STREET
1081 MONTAGUE STREET,1081,MONTAGUE STREET
1103 MONTAGUE STREET,1103,MONTAGUE STREET
1125 MONTAGUE STREET,1125,MONTAGUE STREET
1135 MONTAGUE STREET,1135,MONTAGUE STREET
1142 MONTAGUE STREET,1142,MONTAGUE STREET
1143 MONTAGUE STREET,1143,MONTAGUE STREET
1147 MONTAGUE STREET,1147,MONTAGUE STREET
1162 MONTAGUE STREET,1162,MONTAGUE STREET
1178 MONTAGUE STREET,1178,MONTAGUE STREET
1303 MONTAGUE STREET,1303,MONTAGUE STREET
1311 MONTAGUE STREET,1311,MONTAGUE STREET
1315 MONTAGUE STREET,1315,MONTAGUE STREET
1317 MONTAGUE STREET,1317,MONTAGUE STREET
1320 MONTAGUE STREET,1320,MONTAGUE STREET
1330 MONTAGUE STREET,1330,MONTAGUE STREET
1336 MONTAGUE STREET,1336,MONTAGUE STREET
1340 MONTAGUE STREET,1340,MONTAGUE STREET
1346 MONTAGUE STREET,1346,MONTAGUE STREET
1353 MONTAGUE STREET,1353,MONTAGUE STREET
1354 MONTAGUE STREET,1354,MONTAGUE STREET
1365 MONTAGUE STREET,1365,MONTAGUE STREET
1368 MONTAGUE STREET,1368,MONTAGUE STREET
1414 MONTAGUE STREET,1414,MONTAGUE STREET
1416 MONTAGUE STREET,1416,MONTAGUE STREET
1434 MONTAGUE STREET,1434,MONTAGUE STREET
1456 MONTAGUE STREET,1456,MONTAGUE STREET
1530 MONTAGUE STREET,1530,MONTAGUE STREET
1560 MONTAGUE STREET,1560,MONTAGUE STREET
1569 MONTAGUE STREET,1569,MONTAGUE STREET
1575 MONTAGUE STREET,1575,MONTAGUE STREET
1576 MONTAGUE STREET,1576,MONTAGUE STREET
1580 MONTAGUE STREET,1580,MONTAGUE STREET
1815 MONTAGUE STREET,1815,MONTAGUE STREET
1911 MONTAGUE STREET,1911,MONTAGUE STREET
1929 MONTAGUE STREET,1929,MONTAGUE STREET
1937 MONTAGUE STREET,1937,MONTAGUE STREET
1941 MONTAGUE STREET,1941,MONTAGUE STREET
1952 MONTAGUE STREET,1952,MONTAGUE STREET
1956 MONTAGUE STREET,1956,MONTAGUE STREET
1959 MONTAGUE STREET,1959,MONTAGUE STREET
1960 MONTAGUE STREET,1960,MONTAGUE STREET
2025 MONTAGUE STREET,2025,MONTAGUE STREET
2034 MONTAGUE STREET,2034,MONTAGUE STREET
2044 MONTAGUE STREET,2044,MONTAGUE STREET
2047 MONTAGUE STREET,2047,MONTAGUE STREET
2048 MONTAGUE STREET,2048,MONTAGUE STREET
2054 MONTAGUE STREET,2054,MONTAGUE STREET
2058 MONTAGUE STREET,2058,MONTAGUE STREET
2063 MONTAGUE STREET,2063,MONTAGUE STREET
2067 MONTAGUE STREET,2067,MONTAGUE STREET
2078 MONTAGUE STREET,2078,MONTAGUE STREET
2108 MONTAGUE STREET,2108,MONTAGUE STREET
2116 MONTAGUE STREET,2116,MONTAGUE STREET
2120 MONTAGUE STREET,2120,MONTAGUE STREET
2146 MONTAGUE STREET,2146,MONTAGUE STREET
2151 MONTAGUE STREET,2151,MONTAGUE STREET
2152 MONTAGUE STREET,2152,MONTAGUE STREET
2158 MONTAGUE STREET,2158,MONTAGUE STREET
2160 MONTAGUE STREET,2160,MONTAGUE STREET
2165 MONTAGUE STREET,2165,MONTAGUE STREET
2175 MONTAGUE STREET,2175,MONTAGUE STREET
2177 MONTAGUE STREET,2177,MONTAGUE STREET
2183 MONTAGUE STREET,2183,MONTAGUE STREET
2187 MONTAGUE STREET,2187,MONTAGUE STREET
2200 MONTAGUE STREET,2200,MONTAGUE STREET
2203 MONTAGUE STREET,2203,MONTAGUE STREET
2215 MONTAGUE STREET,2215,MONTAGUE STREET
2218 MONTAGUE STREET,2218,MONTAGUE STREET
2237 MONTAGUE STREET,2237,MONTAGUE STREET
2248 MONTAGUE STREET,2248,MONTAGUE STREET
2258 MONTAGUE STREET,2258,MONTAGUE STREET
2259 MONTAGUE STREET,2259,MONTAGUE STREET
2261 MONTAGUE STREET,2261,MONTAGUE STREET
2300 MONTAGUE STREET,2300,MONTAGUE STREET
2336 MONTAGUE STREET,2336,MONTAGUE STREET
2337 MONTAGUE STREET,2337,MONTAGUE STREET
2340 MONTAGUE STREET,2340,MONTAGUE STREET
2341 MONTAGUE STREET,2341,MONTAGUE STREET
2344 MONTAGUE STREET,2344,MONTAGUE STREET
2350 MONTAGUE STREET,2350,MONTAGUE STREET
2356 MONTAGUE STREET,2356,MONTAGUE STREET
2359 MONTAGUE STREET,2359,MONTAGUE STREET
2364 MONTAGUE STREET,2364,MONTAGUE STREET
2410 MONTAGUE STREET,2410,MONTAGUE STREET
2413 MONTAGUE STREET,2413,MONTAGUE STREET
2427 MONTAGUE STREET,2427,MONTAGUE STREET
2428 MONTAGUE STREET,2428,MONTAGUE STREET
2438 MONTAGUE STREET,2438,MONTAGUE STREET
1444 MONTAGUE STREET,1444,MONTAGUE STREET
1564 MONTAGUE STREET,1564,MONTAGUE STREET
1622 MONTREAL STREET,1622,MONTREAL STREET
1624 MONTREAL STREET,1624,MONTREAL STREET
1630 MONTREAL STREET,1630,MONTREAL STREET
1636 MONTREAL STREET,1636,MONTREAL STREET
1640 MONTREAL STREET,1640,MONTREAL STREET
1644 MONTREAL STREET,1644,MONTREAL STREET
1648 MONTREAL STREET,1648,MONTREAL STREET
1651 MONTREAL STREET,1651,MONTREAL STREET
1655 MONTREAL STREET,1655,MONTREAL STREET
1656 MONTREAL STREET,1656,MONTREAL STREET
1659 MONTREAL STREET,1659,MONTREAL STREET
1664 MONTREAL STREET,1664,MONTREAL STREET
1668 MONTREAL STREET,1668,MONTREAL STREET
1703 MONTREAL STREET,1703,MONTREAL STREET
1707 MONTREAL STREET,1707,MONTREAL STREET
1719 MONTREAL STREET,1719,MONTREAL STREET
1722 MONTREAL STREET,1722,MONTREAL STREET
1731 MONTREAL STREET,1731,MONTREAL STREET
1735 MONTREAL STREET,1735,MONTREAL STREET
1736 MONTREAL STREET,1736,MONTREAL STREET
1740 MONTREAL STREET,1740,MONTREAL STREET
1743 MONTREAL STREET,1743,MONTREAL STREET
1745 MONTREAL STREET,1745,MONTREAL STREET
1752 MONTREAL STREET,1752,MONTREAL STREET
1756 MONTREAL STREET,1756,MONTREAL STREET
1757 MONTREAL STREET,1757,MONTREAL STREET
1764 MONTREAL STREET,1764,MONTREAL STREET
1777 MONTREAL STREET,1777,MONTREAL STREET
1842 MONTREAL STREET,1842,MONTREAL STREET
1843 MONTREAL STREET,1843,MONTREAL STREET
1845 MONTREAL STREET,1845,MONTREAL STREET
1848 MONTREAL STREET,1848,MONTREAL STREET
1855 MONTREAL STREET,1855,MONTREAL STREET
1856 MONTREAL STREET,1856,MONTREAL STREET
1860 MONTREAL STREET,1860,MONTREAL STREET
1868 MONTREAL STREET,1868,MONTREAL STREET
1869 MONTREAL STREET,1869,MONTREAL STREET
1872 MONTREAL STREET,1872,MONTREAL STREET
1873 MONTREAL STREET,1873,MONTREAL STREET
1901 MONTREAL STREET,1901,MONTREAL STREET
1903 MONTREAL STREET,1903,MONTREAL STREET
1910 MONTREAL STREET,1910,MONTREAL STREET
1913 MONTREAL STREET,1913,MONTREAL STREET
1916 MONTREAL STREET,1916,MONTREAL STREET
1931 MONTREAL STREET,1931,MONTREAL STREET
1934 MONTREAL STREET,1934,MONTREAL STREET
1935 MONTREAL STREET,1935,MONTREAL STREET
1940 MONTREAL STREET,1940,MONTREAL STREET
1943 MONTREAL STREET,1943,MONTREAL STREET
1944 MONTREAL STREET,1944,MONTREAL STREET
1948 MONTREAL STREET,1948,MONTREAL STREET
1949 MONTREAL STREET,1949,MONTREAL STREET
2027 MONTREAL STREET,2027,MONTREAL STREET
2031 MONTREAL STREET,2031,MONTREAL STREET
2045 MONTREAL STREET,2045,MONTREAL STREET
2049 MONTREAL STREET,2049,MONTREAL STREET
2055 MONTREAL STREET,2055,MONTREAL STREET
2061 MONTREAL STREET,2061,MONTREAL STREET
2065 MONTREAL STREET,2065,MONTREAL STREET
2073 MONTREAL STREET,2073,MONTREAL STREET
2075 MONTREAL STREET,2075,MONTREAL STREET
2079 MONTREAL STREET,2079,MONTREAL STREET
2204 MONTREAL STREET,2204,MONTREAL STREET
2205 MONTREAL STREET,2205,MONTREAL STREET
2210 MONTREAL STREET,2210,MONTREAL STREET
2212 MONTREAL STREET,2212,MONTREAL STREET
2215 MONTREAL STREET,2215,MONTREAL STREET
2224 MONTREAL STREET,2224,MONTREAL STREET
2228 MONTREAL STREET,2228,MONTREAL STREET
2234 MONTREAL STREET,2234,MONTREAL STREET
2240 MONTREAL STREET,2240,MONTREAL STREET
2246 MONTREAL STREET,2246,MONTREAL STREET
2249 MONTREAL STREET,2249,MONTREAL STREET
2255 MONTREAL STREET,2255,MONTREAL STREET
2257 MONTREAL STREET,2257,MONTREAL STREET
2261 MONTREAL STREET,2261,MONTREAL STREET
2270 MONTREAL STREET,2270,MONTREAL STREET
2319 MONTREAL STREET,2319,MONTREAL STREET
2321 MONTREAL STREET,2321,MONTREAL STREET
2324 MONTREAL STREET,2324,MONTREAL STREET
2325 MONTREAL STREET,2325,MONTREAL STREET
2326 MONTREAL STREET,2326,MONTREAL STREET
2329 MONTREAL STREET,2329,MONTREAL STREET
2332 MONTREAL STREET,2332,MONTREAL STREET
2333 MONTREAL STREET,2333,MONTREAL STREET
2336 MONTREAL STREET,2336,MONTREAL STREET
2337 MONTREAL STREET,2337,MONTREAL STREET
2349 MONTREAL STREET,2349,MONTREAL STREET
2354 MONTREAL STREET,2354,MONTREAL STREET
2358 MONTREAL STREET,2358,MONTREAL STREET
1162 OSLER STREET,1162,OSLER STREET
1221 OSLER STREET,1221,OSLER STREET
1245 OSLER STREET,1245,OSLER STREET
1279 OSLER STREET,1279,OSLER STREET
1600 OSLER STREET,1600,OSLER STREET
1634 OSLER STREET,1634,OSLER STREET
1644 OSLER STREET,1644,OSLER STREET
1645 OSLER STREET,1645,OSLER STREET
1734 OSLER STRRET,1734,OSLER STRRET
2051 OSLER STREET,2051,OSLER STREET
2055 OSLER STREET,2055,OSLER STREET
2102 OSLER STREET,2102,OSLER STREET
2107 OSLER STREET,2107,OSLER STREET
2111 OSLER STREET,2111,OSLER STREET
2128 OSLER STREET,2128,OSLER STREET
2156 OSLER STREET,2156,OSLER STREET
2215 OSLER STREET,2215,OSLER STREET
2218 OSLER STREET,2218,OSLER STREET
2248 OSLER STREET,2248,OSLER STREET
2268 OSLER STREET,2268,OSLER STREET
2341 OSLER STREET,2341,OSLER STREET
2345 OSLER STREET,2345,OSLER STREET
2349 OSLER STREET,2349,OSLER STREET
2080 OSLER STREET,2080,OSLER STREET
264 N OTTAWA STREET,264,N OTTAWA STREET
1310 OTTAWA STREET,1310,OTTAWA STREET
1408 OTTAWA STREET,1408,OTTAWA STREET
1450 OTTAWA STREET,1450,OTTAWA STREET
1547 OTTAWA STREET,1547,OTTAWA STREET
1615 OTTAWA STREET,1615,OTTAWA STREET
1629 OTTAWA STREET,1629,OTTAWA STREET
1633 OTTAWA STREET,1633,OTTAWA STREET
1639 OTTAWA STREET,1639,OTTAWA STREET
1643 OTTAWA STREET,1643,OTTAWA STREET
1645 OTTAWA STREET,1645,OTTAWA STREET
1654 OTTAWA STREET,1654,OTTAWA STREET
1656 OTTAWA STREET,1656,OTTAWA STREET
1657 OTTAWA STREET,1657,OTTAWA STREET
1668 OTTAWA STREET,1668,OTTAWA STREET
1716 OTTAWA STREET,1716,OTTAWA STREET
1730 OTTAWA STREET,1730,OTTAWA STREET
1732 OTTAWA STREET,1732,OTTAWA STREET
1736 OTTAWA STREET,1736,OTTAWA STREET
1743 OTTAWA STREET,1743,OTTAWA STREET
1749 OTTAWA STREET,1749,OTTAWA STREET
1750 OTTAWA STREET,1750,OTTAWA STREET
1753 OTTAWA STREET,1753,OTTAWA STREET
1757 OTTAWA STREET,1757,OTTAWA STREET
1760 OTTAWA STREET,1760,OTTAWA STREET
1761 OTTAWA STREET,1761,OTTAWA STREET
1771 OTTAWA STREET,1771,OTTAWA STREET
1825 OTTAWA STREET,1825,OTTAWA STREET
1826 OTTAWA STREET,1826,OTTAWA STREET
1827 OTTAWA STREET,1827,OTTAWA STREET
1828 OTTAWA STREET,1828,OTTAWA STREET
1829 OTTAWA STREET,1829,OTTAWA STREET
1830 OTTAWA STREET,1830,OTTAWA STREET
1834 OTTAWA STREET,1834,OTTAWA STREET
1837 OTTAWA STREET,1837,OTTAWA STREET
1843 OTTAWA STREET,1843,OTTAWA STREET
1847 OTTAWA STREET,1847,OTTAWA STREET
1855 OTTAWA STREET,1855,OTTAWA STREET
1865 OTTAWA STREET,1865,OTTAWA STREET
1875 OTTAWA STREET,1875,OTTAWA STREET
1878 OTTAWA STREET,1878,OTTAWA STREET
1900 OTTAWA STREET,1900,OTTAWA STREET
1920 OTTAWA STREET,1920,OTTAWA STREET
1924 OTTAWA STREET,1924,OTTAWA STREET
1926 OTTAWA STREET,1926,OTTAWA STREET
2024 OTTAWA STREET,2024,OTTAWA STREET
2028 OTTAWA STREET,2028,OTTAWA STREET
2030 OTTAWA STREET,2030,OTTAWA STREET
2033 OTTAWA STREET,2033,OTTAWA STREET
2035 OTTAWA STREET,2035,OTTAWA STREET
2036 OTTAWA STREET,2036,OTTAWA STREET
2041 OTTAWA STREET,2041,OTTAWA STREET
2045 OTTAWA STREET,2045,OTTAWA STREET
2051 OTTAWA STREET,2051,OTTAWA STREET
2055 OTTAWA STREET,2055,OTTAWA STREET
2077 OTTAWA STREET,2077,OTTAWA STREET
2310 OTTAWA STREET,2310,OTTAWA STREET
2312 OTTAWA STREET,2312,OTTAWA STREET
2316 OTTAWA STREET,2316,OTTAWA STREET
2322 OTTAWA STREET,2322,OTTAWA STREET
2328 OTTAWA STREET,2328,OTTAWA STREET
2329 OTTAWA STREET,2329,OTTAWA STREET
2330 OTTAWA STREET,2330,OTTAWA STREET
2331 OTTAWA STREET,2331,OTTAWA STREET
2336 OTTAWA STREET,2336,OTTAWA STREET
2342 OTTAWA STREET,2342,OTTAWA STREET
1711 OTTAWA STREET,1711,OTTAWA STREET
1873 OTTAWA STREET,1873,OTTAWA STREET
2139 PASQUA STREET,2139,PASQUA STREET
2142 PASQUA STREET,2142,PASQUA STREET
2146 PASQUA STREET,2146,PASQUA STREET
2150 PASQUA STREET,2150,PASQUA STREET
2161 PASQUA STREET,2161,PASQUA STREET
2164 PASQUA STREET,2164,PASQUA STREET
2218 PASQUA STREET,2218,PASQUA STREET
2225 PASQUA STREET,2225,PASQUA STREET
2229 PASQUA STREET,2229,PASQUA STREET
2241 PASQUA STREET,2241,PASQUA STREET
2256 PASQUA STREET,2256,PASQUA STREET
2261 PASQUA STREET,2261,PASQUA STREET
3310 PIKE AVENUE,3310,PIKE AVENUE
3332 PIKE AVENUE,3332,PIKE AVENUE
1018 PRINCESS STREET,1018,PRINCESS STREET
1024 PRINCESS STREET,1024,PRINCESS STREET
1230 PRINCESS STREET,1230,PRINCESS STREET
1241 PRINCESS STREET,1241,PRINCESS STREET
1252 PRINCESS STREET,1252,PRINCESS STREET
1255 PRINCESS STREET,1255,PRINCESS STREET
1261 PRINCESS STREET,1261,PRINCESS STREET
1264 PRINCESS STREET,1264,PRINCESS STREET
1275 PRINCESS STREET,1275,PRINCESS STREET
1278 PRINCESS STREET,1278,PRINCESS STREET
1316 PRINCESS STREET,1316,PRINCESS STREET
1320 PRINCESS STREET,1320,PRINCESS STREET
1323 PRINCESS STREET,1323,PRINCESS STREET
1324 PRINCESS STREET,1324,PRINCESS STREET
1339 PRINCESS STREET,1339,PRINCESS STREET
1340 PRINCESS STREET,1340,PRINCESS STREET
1346 PRINCESS STREET,1346,PRINCESS STREET
1349 PRINCESS STREET,1349,PRINCESS STREET
1350 PRINCESS STREET,1350,PRINCESS STREET
1376 PRINCESS STREET,1376,PRINCESS STREET
1431 PRINCESS STREET,1431,PRINCESS STREET
1432 PRINCESS STREET,1432,PRINCESS STREET
1435 PRINCESS STREET,1435,PRINCESS STREET
1449 PRINCESS STREET,1449,PRINCESS STREET
1457 PRINCESS STREET,1457,PRINCESS STREET
1459 PRINCESS STREET,1459,PRINCESS STREET
1525 PRINCESS STREET,1525,PRINCESS STREET
2012 PRINCESS STREET,2012,PRINCESS STREET
2022 PRINCESS STREET,2022,PRINCESS STREET
2026 PRINCESS STREET,2026,PRINCESS STREET
2030 PRINCESS STREET,2030,PRINCESS STREET
2036 PRINCESS STREET,2036,PRINCESS STREET
2040 PRINCESS STREET,2040,PRINCESS STREET
2042 PRINCESS STREET,2042,PRINCESS STREET
2056 PRINCESS STREET,2056,PRINCESS STREET
2060 PRINCESS STREET,2060,PRINCESS STREET
2064 PRINCESS STREET,2064,PRINCESS STREET
2066 PRINCESS STREET,2066,PRINCESS STREET
2068 PRINCESS STREET,2068,PRINCESS STREET
2075 PRINCESS STREET,2075,PRINCESS STREET
2079 PRINCESS STREET,2079,PRINCESS STREET
2102 PRINCESS STREET,2102,PRINCESS STREET
2128 PRINCESS STREET,2128,PRINCESS STREET
2133 PRINCESS STREET,2133,PRINCESS STREET
2136 PRINCESS STREET,2136,PRINCESS STREET
2150 PRINCESS STREET,2150,PRINCESS STREET
2155 PRINCESS STREET,2155,PRINCESS STREET
2160 PRINCESS STREET,2160,PRINCESS STREET
2164 PRINCESS STREET,2164,PRINCESS STREET
2179 PRINCESS STREET,2179,PRINCESS STREET
2204 PRINCESS STREET,2204,PRINCESS STREET
2208 PRINCESS STREET,2208,PRINCESS STREET
2209 PRINCESS STREET,2209,PRINCESS STREET
2212 PRINCESS STREET,2212,PRINCESS STREET
2229 PRINCESS STREET,2229,PRINCESS STREET
2231 PRINCESS STREET,2231,PRINCESS STREET
820 PRINCESS STREET,820,PRINCESS STREET
859 PRINCESS STREET,859,PRINCESS STREET
924 PRINCESS STREET,924,PRINCESS STREET
2110 PRINCESS STREET,2110,PRINCESS STREET
1709 QUEBEC STREET,1709,QUEBEC STREET
1723 QUEBEC STREET,1723,QUEBEC STREET
1735 QUEBEC STREET,1735,QUEBEC STREET
1738 QUEBEC STREET,1738,QUEBEC STREET
1755 QUEBEC STREET,1755,QUEBEC STREET
1758 QUEBEC STREET,1758,QUEBEC STREET
1764 QUEBEC STREET,1764,QUEBEC STREET
1811 QUEBEC STREET,1811,QUEBEC STREET
1840 QUEBEC STREET,1840,QUEBEC STREET
1841 QUEBEC STREET,1841,QUEBEC STREET
1844 QUEBEC STREET,1844,QUEBEC STREET
1852 QUEBEC STREET,1852,QUEBEC STREET
1855 QUEBEC STREET,1855,QUEBEC STREET
1866 QUEBEC STREET,1866,QUEBEC STREET
1874 QUEBEC STREET,1874,QUEBEC STREET
1876 QUEBEC STREET,1876,QUEBEC STREET
1912 QUEBEC STREET,1912,QUEBEC STREET
1925 QUEBEC STREET,1925,QUEBEC STREET
1930 QUEBEC STREET,1930,QUEBEC STREET
1933 QUEBEC STREET,1933,QUEBEC STREET
1953 QUEBEC STREET,1953,QUEBEC STREET
1957 QUEBEC STREET,1957,QUEBEC STREET
2210 QUEBEC STREET,2210,QUEBEC STREET
2218 QUEBEC STREET,2218,QUEBEC STREET
2222 QUEBEC STREET,2222,QUEBEC STREET
2224 QUEBEC STREET,2224,QUEBEC STREET
2232 QUEBEC STREET,2232,QUEBEC STREET
2236 QUEBEC STREET,2236,QUEBEC STREET
2242 QUEBEC STREET,2242,QUEBEC STREET
2243 QUEBEC STREET,2243,QUEBEC STREET
2244 QUEBEC STREET,2244,QUEBEC STREET
2305 QUEBEC STREET,2305,QUEBEC STREET
2310 QUEBEC STREET,2310,QUEBEC STREET
2323 QUEBEC STREET,2323,QUEBEC STREET
2331 QUEBEC STREET,2331,QUEBEC STREET
2335 QUEBEC STREET,2335,QUEBEC STREET
2338 QUEBEC STREET,2338,QUEBEC STREET
2339 QUEBEC STREET,2339,QUEBEC STREET
2342 QUEBEC STREET,2342,QUEBEC STREET
2344 QUEBEC STREET,2344,QUEBEC STREET
2347 QUEBEC STREET,2347,QUEBEC STREET
2355 QUEBEC STREET,2355,QUEBEC STREET
1700 QUEBEC STREET,1700,QUEBEC STREET
1773 QUEBEC STREET,1773,QUEBEC STREET
1857 QUEBEC STREET,1857,QUEBEC STREET
2326 QUEBEC STREET,2326,QUEBEC STREET
801 QUEEN STREET,801,QUEEN STREET
857 QUEEN STREET,857,QUEEN STREET
1069 QUEEN STREET,1069,QUEEN STREET
1078 QUEEN STREET,1078,QUEEN STREET
1130 QUEEN STREET,1130,QUEEN STREET
1145 QUEEN STREET,1145,QUEEN STREET
1162 QUEEN STREET,1162,QUEEN STREET
1167 QUEEN STREET,1167,QUEEN STREET
1168 QUEEN STREET,1168,QUEEN STREET
1176 QUEEN STREET,1176,QUEEN STREET
1216 QUEEN STREET,1216,QUEEN STREET
1220 QUEEN STREET,1220,QUEEN STREET
1226 QUEEN STREET,1226,QUEEN STREET
1227 QUEEN STREET,1227,QUEEN STREET
1233 QUEEN STREET,1233,QUEEN STREET
1234 QUEEN STREET,1234,QUEEN STREET
1240 QUEEN STREET,1240,QUEEN STREET
1246 QUEEN STREET,1246,QUEEN STREET
1252 QUEEN STREET,1252,QUEEN STREET
1259 QUEEN STREET,1259,QUEEN STREET
1265 QUEEN STREET,1265,QUEEN STREET
1271 QUEEN STREET,1271,QUEEN STREET
1276 QUEEN STREET,1276,QUEEN STREET
1277 QUEEN STREET,1277,QUEEN STREET
1302 QUEEN STREET,1302,QUEEN STREET
1308 QUEEN STREET,1308,QUEEN STREET
1316 QUEEN STREET,1316,QUEEN STREET
1320 QUEEN STREET,1320,QUEEN STREET
1321 QUEEN STREET,1321,QUEEN STREET
1324 QUEEN STREET,1324,QUEEN STREET
1332 QUEEN STREET,1332,QUEEN STREET
1336 QUEEN STREET,1336,QUEEN STREET
1339 QUEEN STREET,1339,QUEEN STREET
1343 QUEEN STREET,1343,QUEEN STREET
1346 QUEEN STREET,1346,QUEEN STREET
1357 QUEEN STREET,1357,QUEEN STREET
1361 QUEEN STREET,1361,QUEEN STREET
1365 QUEEN STREET,1365,QUEEN STREET
1373 QUEEN STREET,1373,QUEEN STREET
1400 QUEEN STREET,1400,QUEEN STREET
1410 QUEEN STREET,1410,QUEEN STREET
1414 QUEEN STREET,1414,QUEEN STREET
1428 QUEEN STREET,1428,QUEEN STREET
1440 QUEEN STREET,1440,QUEEN STREET
1446 QUEEN STREET,1446,QUEEN STREET
1450 QUEEN STREET,1450,QUEEN STREET
2025 QUEEN STREET,2025,QUEEN STREET
2034 QUEEN STREET,2034,QUEEN STREET
2036 QUEEN STREET,2036,QUEEN STREET
2037 QUEEN STREET,2037,QUEEN STREET
2056 QUEEN STREET,2056,QUEEN STREET
2057 QUEEN STREET,2057,QUEEN STREET
2060 QUEEN STREET,2060,QUEEN STREET
2061 QUEEN STREET,2061,QUEEN STREET
2064 QUEEN STREET,2064,QUEEN STREET
2065 QUEEN STREET,2065,QUEEN STREET
2070 QUEEN STREET,2070,QUEEN STREET
2108 QUEEN STREET,2108,QUEEN STREET
2129 QUEEN STREET,2129,QUEEN STREET
2130 QUEEN STREET,2130,QUEEN STREET
2135 QUEEN STREET,2135,QUEEN STREET
2156 QUEEN STREET,2156,QUEEN STREET
2161 QUEEN STREET,2161,QUEEN STREET
2168 QUEEN STREET,2168,QUEEN STREET
2169 QUEEN STREET,2169,QUEEN STREET
2172 QUEEN STREET,2172,QUEEN STREET
2178 QUEEN STREET,2178,QUEEN STREET
2200 QUEEN STREET,2200,QUEEN STREET
2209 QUEEN STREET,2209,QUEEN STREET
2215 QUEEN STREET,2215,QUEEN STREET
2217 QUEEN STREET,2217,QUEEN STREET
2241 QUEEN STREET,2241,QUEEN STREET
2243 QUEEN STREET,2243,QUEEN STREET
2256 QUEEN STREET,2256,QUEEN STREET
2260 QUEEN STREET,2260,QUEEN STREET
2263 QUEEN STREET,2263,QUEEN STREET
2265 QUEEN STREET,2265,QUEEN STREET
2271 QUEEN STREET,2271,QUEEN STREET
2277 QUEEN STREET,2277,QUEEN STREET
1221 QUEEN STREET,1221,QUEEN STREET
1309 QUEEN STREET,1309,QUEEN STREET
2040 QUEEN STREET,2040,QUEEN STREET
801 RAE STREET,801,RAE STREET
802 RAE STREET,802,RAE STREET
809 RAE STREET,809,RAE STREET
831 RAE STREET,831,RAE STREET
835 RAE STREET,835,RAE STREET
843 RAE STREET,843,RAE STREET
856 RAE STREET,856,RAE STREET
867 RAE STREET,867,RAE STREET
873 RAE STREET,873,RAE STREET
910 RAE STREET,910,RAE STREET
924 RAE STREET,924,RAE STREET
928 RAE STREET,928,RAE STREET
933 RAE STREET,933,RAE STREET
936 RAE STREET,936,RAE STREET
971 RAE STREET,971,RAE STREET
1011 RAE STREET,1011,RAE STREET
1013 RAE STREET,1013,RAE STREET
1024 RAE STREET,1024,RAE STREET
1027 RAE STREET,1027,RAE STREET
1036 RAE STREET,1036,RAE STREET
1041 RAE STREET,1041,RAE STREET
1049 RAE STREET,1049,RAE STREET
1056 RAE STREET,1056,RAE STREET
1068 RAE STREET,1068,RAE STREET
1072 RAE STREET,1072,RAE STREET
1110 RAE STREET,1110,RAE STREET
1111 RAE STREET,1111,RAE STREET
1112 RAE STREET,1112,RAE STREET
1113 RAE STREET,1113,RAE STREET
1120 RAE STREET,1120,RAE STREET
1121 RAE STREET,1121,RAE STREET
1122 RAE STREET,1122,RAE STREET
1134 RAE STREET,1134,RAE STREET
1139 RAE STREET,1139,RAE STREET
1149 RAE STREET,1149,RAE STREET
1153 RAE STREET,1153,RAE STREET
1161 RAE STREET,1161,RAE STREET
1167 RAE STREET,1167,RAE STREET
1176 RAE STREET,1176,RAE STREET
1200 RAE STREET,1200,RAE STREET
1212 RAE STREET,1212,RAE STREET
1215 RAE STREET,1215,RAE STREET
1216 RAE STREET,1216,RAE STREET
1220 RAE STREET,1220,RAE STREET
1226 RAE STREET,1226,RAE STREET
1227 RAE STREET,1227,RAE STREET
1230 RAE STREET,1230,RAE STREET
1251 RAE STREET,1251,RAE STREET
1260 RAE STREET,1260,RAE STREET
1265 RAE STREET,1265,RAE STREET
1266 RAE STREET,1266,RAE STREET
1269 RAE STREET,1269,RAE STREET
1275 RAE STREET,1275,RAE STREET
1326 RAE STREET,1326,RAE STREET
1330 RAE STREET,1330,RAE STREET
1353 RAE STREET,1353,RAE STREET
1354 RAE STREET,1354,RAE STREET
1357 RAE STREET,1357,RAE STREET
1360 RAE STREET,1360,RAE STREET
1364 RAE STREET,1364,RAE STREET
1401 RAE STREET,1401,RAE STREET
1409 RAE STREET,1409,RAE STREET
1413 RAE STREET,1413,RAE STREET
1416 RAE STREET,1416,RAE STREET
1424 RAE STREET,1424,RAE STREET
1427 RAE STREET,1427,RAE STREET
1431 RAE STREET,1431,RAE STREET
1438 RAE STREET,1438,RAE STREET
1542 RAE STREET,1542,RAE STREET
1548 RAE STREET,1548,RAE STREET
1554 RAE STREET,1554,RAE STREET
1572 RAE STREET,1572,RAE STREET
1576 RAE STREET,1576,RAE STREET
1580 RAE STREET,1580,RAE STREET
1611 RAE STREET,1611,RAE STREET
1612 RAE STREET,1612,RAE STREET
1621 RAE STREET,1621,RAE STREET
1633 RAE STREET,1633,RAE STREET
1651 RAE STREET,1651,RAE STREET
1656 RAE STREET,1656,RAE STREET
1674 RAE STREET,1674,RAE STREET
1812 RAE STREET,1812,RAE STREET
1816 RAE STREET,1816,RAE STREET
1826 RAE STREET,1826,RAE STREET
1831 RAE STREET,1831,RAE STREET
1855 RAE STREET,1855,RAE STREET
1858 RAE STREET,1858,RAE STREET
1868 RAE STREET,1868,RAE STREET
1874 RAE STREET,1874,RAE STREET
1876 RAE STREET,1876,RAE STREET
1884 RAE STREET,1884,RAE STREET
1919 RAE STREET,1919,RAE STREET
1925 RAE STREET,1925,RAE STREET
1931 RAE STREET,1931,RAE STREET
1941 RAE STREET,1941,RAE STREET
1945 RAE STREET,1945,RAE STREET
1951 RAE STREET,1951,RAE STREET
2022 RAE STREET,2022,RAE STREET
2025 RAE STREET,2025,RAE STREET
2033 RAE STREET,2033,RAE STREET
2034 RAE STREET,2034,RAE STREET
2038 RAE STREET,2038,RAE STREET
2047 RAE STREET,2047,RAE STREET
2059 RAE STREET,2059,RAE STREET
2067 RAE STREET,2067,RAE STREET
2068 RAE STREET,2068,RAE STREET
2108 RAE STREET,2108,RAE STREET
2147 RAE STREET,2147,RAE STREET
2172 RAE STREET,2172,RAE STREET
2200 RAE STREET,2200,RAE STREET
2212 RAE STREET,2212,RAE STREET
2217 RAE STREET,2217,RAE STREET
2220 RAE STREET,2220,RAE STREET
2224 RAE STREET,2224,RAE STREET
2227 RAE STREET,2227,RAE STREET
2230 RAE STREET,2230,RAE STREET
2232 RAE STREET,2232,RAE STREET
2260 RAE STREET,2260,RAE STREET
2265 RAE STREET,2265,RAE STREET
2270 RAE STREET,2270,RAE STREET
2300 RAE STREET,2300,RAE STREET
2310 RAE STREET,2310,RAE STREET
2315 RAE STREET,2315,RAE STREET
2319 RAE STREET,2319,RAE STREET
2325 RAE STREET,2325,RAE STREET
2328 RAE STREET,2328,RAE STREET
2340 RAE STREET,2340,RAE STREET
2342 RAE STREET,2342,RAE STREET
2368 RAE STREET,2368,RAE STREET
2830 RAE STREET,2830,RAE STREET
2834 RAE STREET,2834,RAE STREET
2838 RAE STREET,2838,RAE STREET
2844 RAE STREET,2844,RAE STREET
2848 RAE STREET,2848,RAE STREET
2852 RAE STREET,2852,RAE STREET
2856 RAE STREET,2856,RAE STREET
2860 RAE STREET,2860,RAE STREET
2864 RAE STREET,2864,RAE STREET
2876 RAE STREET,2876,RAE STREET
2900 RAE STREET,2900,RAE STREET
2930 RAE STREET,2930,RAE STREET
2936 RAE STREET,2936,RAE STREET
2958 RAE STREET,2958,RAE STREET
3024 RAE STREET,3024,RAE STREET
3031 RAE STREET,3031,RAE STREET
3038 RAE STREET,3038,RAE STREET
3052 RAE STREET,3052,RAE STREET
3060 RAE STREET,3060,RAE STREET
3103 RAE STREET,3103,RAE STREET
3115 RAE STREET,3115,RAE STREET
3120 RAE STREET,3120,RAE STREET
3136 RAE STREET,3136,RAE STREET
1032 RAE STREET,1032,RAE STREET
1453 RAE STREET,1453,RAE STREET
1523 RAE STREET,1523,RAE STREET
1643 RAE STREET,1643,RAE STREET
1654 RAE STREET,1654,RAE STREET
1961 RAE STREET,1961,RAE STREET
2353 RAE STREET,2353,RAE STREET
940 RAE STREET,940,RAE STREET
2600 REGINA AVENUE,2600,REGINA AVENUE
2620 REGINA AVENUE,2620,REGINA AVENUE
2625 REGINA AVENUE,2625,REGINA AVENUE
2635 REGINA AVENUE,2635,REGINA AVENUE
2680 REGINA AVENUE,2680,REGINA AVENUE
2700 REGINA AVENUE,2700,REGINA AVENUE
2701 REGINA AVENUE,2701,REGINA AVENUE
2711 REGINA AVENUE,2711,REGINA AVENUE
2718 REGINA AVENUE,2718,REGINA AVENUE
2728 REGINA AVENUE,2728,REGINA AVENUE
2735 REGINA AVENUE,2735,REGINA AVENUE
2801 REGINA AVENUE,2801,REGINA AVENUE
2802 REGINA AVENUE,2802,REGINA AVENUE
2804 REGINA AVENUE,2804,REGINA AVENUE
2805 REGINA AVENUE,2805,REGINA AVENUE
2809 REGINA AVENUE,2809,REGINA AVENUE
2812 REGINA AVENUE,2812,REGINA AVENUE
2815 REGINA AVENUE,2815,REGINA AVENUE
2818 REGINA AVENUE,2818,REGINA AVENUE
2819 REGINA AVENUE,2819,REGINA AVENUE
2823 REGINA AVENUE,2823,REGINA AVENUE
2626 REGINA AVENUE,2626,REGINA AVENUE
2831 REGINA AVENUE,2831,REGINA AVENUE
2834 REGINA AVENUE,2834,REGINA AVENUE
2835 REGINA AVENUE,2835,REGINA AVENUE
2836 REGINA AVENUE,2836,REGINA AVENUE
2909 REGINA AVENUE,2909,REGINA AVENUE
2915 REGINA AVENUE,2915,REGINA AVENUE
2919 REGINA AVENUE,2919,REGINA AVENUE
2921 REGINA AVENUE,2921,REGINA AVENUE
3137 REGINA AVENUE,3137,REGINA AVENUE
2726 REGINA AVENUE,2726,REGINA AVENUE
838 RETALLACK STREET,838,RETALLACK STREET
852 RETALLACK STREET,852,RETALLACK STREET
857 RETALLACK STREET,857,RETALLACK STREET
860 RETALLACK STREET,860,RETALLACK STREET
864 RETALLACK STREET,864,RETALLACK STREET
865 RETALLACK STREET,865,RETALLACK STREET
870 RETALLACK STREET,870,RETALLACK STREET
871 RETALLACK STREET,871,RETALLACK STREET
875 RETALLACK STREET,875,RETALLACK STREET
879 RETALLACK STREET,879,RETALLACK STREET
905 RETALLACK STREET,905,RETALLACK STREET
918 RETALLACK STREET,918,RETALLACK STREET
921 RETALLACK STREET,921,RETALLACK STREET
930 RETALLACK STREET,930,RETALLACK STREET
936 RETALLACK STREET,936,RETALLACK STREET
948 RETALLACK STREET,948,RETALLACK STREET
949 RETALLACK STREET,949,RETALLACK STREET
953 RETALLACK STREET,953,RETALLACK STREET
957 RETALLACK STREET,957,RETALLACK STREET
964 RETALLACK STREET,964,RETALLACK STREET
971 RETALLACK STREET,971,RETALLACK STREET
978 RETALLACK STREET,978,RETALLACK STREET
1011 RETALLACK STREET,1011,RETALLACK STREET
1015 RETALLACK STREET,1015,RETALLACK STREET
1021 RETALLACK STREET,1021,RETALLACK STREET
1026 RETALLACK STREET,1026,RETALLACK STREET
1031 RETALLACK STREET,1031,RETALLACK STREET
1033 RETALLACK STREET,1033,RETALLACK STREET
1040 RETALLACK STREET,1040,RETALLACK STREET
1046 RETALLACK STREET,1046,RETALLACK STREET
1058 RETALLACK STREET,1058,RETALLACK STREET
1073 RETALLACK STREET,1073,RETALLACK STREET
1077 RETALLACK STREET,1077,RETALLACK STREET
1108 RETALLACK STREET,1108,RETALLACK STREET
1116 RETALLACK STREET,1116,RETALLACK STREET
1120 RETALLACK STREET,1120,RETALLACK STREET
1125 RETALLACK STREET,1125,RETALLACK STREET
1135 RETALLACK STREET,1135,RETALLACK STREET
1138 RETALLACK STREET,1138,RETALLACK STREET
1144 RETALLACK STREET,1144,RETALLACK STREET
1175 RETALLACK STREET,1175,RETALLACK STREET
1179 RETALLACK STREET,1179,RETALLACK STREET
1209 RETALLACK STREET,1209,RETALLACK STREET
1211 RETALLACK STREET,1211,RETALLACK STREET
1220 RETALLACK STREET,1220,RETALLACK STREET
1235 RETALLACK STREET,1235,RETALLACK STREET
1237 RETALLACK STREET,1237,RETALLACK STREET
1241 RETALLACK STREET,1241,RETALLACK STREET
1242 RETALLACK STREET,1242,RETALLACK STREET
1245 RETALLACK STREET,1245,RETALLACK STREET
1253 RETALLACK STREET,1253,RETALLACK STREET
1303 RETALLACK STREET,1303,RETALLACK STREET
1317 RETALLACK STREET,1317,RETALLACK STREET
1321 RETALLACK STREET,1321,RETALLACK STREET
1324 RETALLACK STREET,1324,RETALLACK STREET
1327 RETALLACK STREET,1327,RETALLACK STREET
1329 RETALLACK STREET,1329,RETALLACK STREET
1335 RETALLACK STREET,1335,RETALLACK STREET
1336 RETALLACK STREET,1336,RETALLACK STREET
1340 RETALLACK STREET,1340,RETALLACK STREET
1345 RETALLACK STREET,1345,RETALLACK STREET
1346 RETALLACK STREET,1346,RETALLACK STREET
1350 RETALLACK STREET,1350,RETALLACK STREET
1355 RETALLACK STREET,1355,RETALLACK STREET
1359 RETALLACK STREET,1359,RETALLACK STREET
1361 RETALLACK STREET,1361,RETALLACK STREET
1370 RETALLACK STREET,1370,RETALLACK STREET
1400 RETALLACK STREET,1400,RETALLACK STREET
1401 RETALLACK STREET,1401,RETALLACK STREET
1404 RETALLACK STREET,1404,RETALLACK STREET
1405 RETALLACK STREET,1405,RETALLACK STREET
1415 RETALLACK STREET,1415,RETALLACK STREET
1419 RETALLACK STREET,1419,RETALLACK STREET
1425 RETALLACK STREET,1425,RETALLACK STREET
1431 RETALLACK STREET,1431,RETALLACK STREET
1433 RETALLACK STREET,1433,RETALLACK STREET
1434 RETALLACK STREET,1434,RETALLACK STREET
1458 RETALLACK STREET,1458,RETALLACK STREET
1530 RETALLACK STREET,1530,RETALLACK STREET
1534 RETALLACK STREET,1534,RETALLACK STREET
1550 RETALLACK STREET,1550,RETALLACK STREET
1560 RETALLACK STREET,1560,RETALLACK STREET
1575 RETALLACK STREET,1575,RETALLACK STREET
1605 RETALLACK STREET,1605,RETALLACK STREET
1611 RETALLACK STREET,1611,RETALLACK STREET
1617 RETALLACK STREET,1617,RETALLACK STREET
1641 RETALLACK STREET,1641,RETALLACK STREET
1821 RETALLACK STREET,1821,RETALLACK STREET
1843 RETALLACK STREET,1843,RETALLACK STREET
1844 RETALLACK STREET,1844,RETALLACK STREET
1845 RETALLACK STREET,1845,RETALLACK STREET
1849 RETALLACK STREET,1849,RETALLACK STREET
1856 RETALLACK STREET,1856,RETALLACK STREET
1862 RETALLACK STREET,1862,RETALLACK STREET
1867 RETALLACK STREET,1867,RETALLACK STREET
1915 RETALLACK STREET,1915,RETALLACK STREET
1924 RETALLACK STREET,1924,RETALLACK STREET
1955 RETALLACK STREET,1955,RETALLACK STREET
2022 RETALLACK STREET,2022,RETALLACK STREET
2026 RETALLACK STREET,2026,RETALLACK STREET
2030 RETALLACK STREET,2030,RETALLACK STREET
2035 RETALLACK STREET,2035,RETALLACK STREET
2039 RETALLACK STREET,2039,RETALLACK STREET
2047 RETALLACK STREET,2047,RETALLACK STREET
2109 RETALLACK STREET,2109,RETALLACK STREET
2123 RETALLACK STREET,2123,RETALLACK STREET
2127 RETALLACK STREET,2127,RETALLACK STREET
2139 RETALLACK STREET,2139,RETALLACK STREET
2143 RETALLACK STREET,2143,RETALLACK STREET
2159 RETALLACK STREET,2159,RETALLACK STREET
2161 RETALLACK STREET,2161,RETALLACK STREET
2169 RETALLACK STREET,2169,RETALLACK STREET
2175 RETALLACK STREET,2175,RETALLACK STREET
2177 RETALLACK STREET,2177,RETALLACK STREET
2178 RETALLACK STREET,2178,RETALLACK STREET
2207 RETALLACK STREET,2207,RETALLACK STREET
2215 RETALLACK STREET,2215,RETALLACK STREET
2220 RETALLACK STREET,2220,RETALLACK STREET
2223 RETALLACK STREET,2223,RETALLACK STREET
2226 RETALLACK STREET,2226,RETALLACK STREET
2227 RETALLACK STREET,2227,RETALLACK STREET
2230 RETALLACK STREET,2230,RETALLACK STREET
2232 RETALLACK STREET,2232,RETALLACK STREET
2237 RETALLACK STREET,2237,RETALLACK STREET
2241 RETALLACK STREET,2241,RETALLACK STREET
2247 RETALLACK STREET,2247,RETALLACK STREET
2249 RETALLACK STREET,2249,RETALLACK STREET
2250 RETALLACK STREET,2250,RETALLACK STREET
2255 RETALLACK STREET,2255,RETALLACK STREET
2256 RETALLACK STREET,2256,RETALLACK STREET
2300 RETALLACK STREET,2300,RETALLACK STREET
2303 RETALLACK STREET,2303,RETALLACK STREET
2310 RETALLACK STREET,2310,RETALLACK STREET
2313 RETALLACK STREET,2313,RETALLACK STREET
2318 RETALLACK STREET,2318,RETALLACK STREET
2321 RETALLACK STREET,2321,RETALLACK STREET
2325 RETALLACK STREET,2325,RETALLACK STREET
2512 RETALLACK STREET,2512,RETALLACK STREET
2540 RETALLACK STREET,2540,RETALLACK STREET
2574 RETALLACK STREET,2574,RETALLACK STREET
2721 RETALLACK STREET,2721,RETALLACK STREET
2723 RETALLACK STREET,2723,RETALLACK STREET
2725 RETALLACK STREET,2725,RETALLACK STREET
2727 RETALLACK STREET,2727,RETALLACK STREET
2756 RETALLACK STREET,2756,RETALLACK STREET
2824 RETALLACK STREET,2824,RETALLACK STREET
2829 RETALLACK STREET,2829,RETALLACK STREET
2838 RETALLACK STREET,2838,RETALLACK STREET
2845 RETALLACK STREET,2845,RETALLACK STREET
2918 RETALLACK STREET,2918,RETALLACK STREET
2923 RETALLACK STREET,2923,RETALLACK STREET
2924 RETALLACK STREET,2924,RETALLACK STREET
2929 RETALLACK STREET,2929,RETALLACK STREET
2935 RETALLACK STREET,2935,RETALLACK STREET
2939 RETALLACK STREET,2939,RETALLACK STREET
3031 RETALLACK STREET,3031,RETALLACK STREET
3032 RETALLACK STREET,3032,RETALLACK STREET
3040 RETALLACK STREET,3040,RETALLACK STREET
3080 RETALLACK STREET,3080,RETALLACK STREET
3111 RETALLACK STREET,3111,RETALLACK STREET
3121 RETALLACK STREET,3121,RETALLACK STREET
3125 RETALLACK STREET,3125,RETALLACK STREET
3132 RETALLACK STREET,3132,RETALLACK STREET
3133 RETALLACK STREET,3133,RETALLACK STREET
3139 RETALLACK STREET,3139,RETALLACK STREET
3148 RETALLACK STREET,3148,RETALLACK STREET
3150 RETALLACK STREET,3150,RETALLACK STREET
1227 RETALLACK STREET,1227,RETALLACK STREET
1252 RETALLACK STREET,1252,RETALLACK STREET
1260 RETALLACK STREET,1260,RETALLACK STREET
1356 RETALLACK STREET,1356,RETALLACK STREET
1430 RETALLACK STREET,1430,RETALLACK STREET
1900 REYNOLDS STREET,1900,REYNOLDS STREET
1914 REYNOLDS STREET,1914,REYNOLDS STREET
1916 REYNOLDS STREET,1916,REYNOLDS STREET
1920 REYNOLDS STREET,1920,REYNOLDS STREET
1922 REYNOLDS STREET,1922,REYNOLDS STREET
2030 REYNOLDS STREET,2030,REYNOLDS STREET
2038 REYNOLDS STREET,2038,REYNOLDS STREET
2046 REYNOLDS STREET,2046,REYNOLDS STREET
2047 REYNOLDS STREET,2047,REYNOLDS STREET
2054 REYNOLDS STREET,2054,REYNOLDS STREET
2055 REYNOLDS STREET,2055,REYNOLDS STREET
2061 REYNOLDS STREET,2061,REYNOLDS STREET
2062 REYNOLDS STREET,2062,REYNOLDS STREET
2065 REYNOLDS STREET,2065,REYNOLDS STREET
2066 REYNOLDS STREET,2066,REYNOLDS STREET
2067 REYNOLDS STREET,2067,REYNOLDS STREET
2070 REYNOLDS STREET,2070,REYNOLDS STREET
2074 REYNOLDS STREET,2074,REYNOLDS STREET
2076 REYNOLDS STREET,2076,REYNOLDS STREET
2100 REYNOLDS STREET,2100,REYNOLDS STREET
2108 REYNOLDS STREET,2108,REYNOLDS STREET
2113 REYNOLDS STREET,2113,REYNOLDS STREET
2114 REYNOLDS STREET,2114,REYNOLDS STREET
2124 REYNOLDS STREET,2124,REYNOLDS STREET
2125 REYNOLDS STREET,2125,REYNOLDS STREET
2128 REYNOLDS STREET,2128,REYNOLDS STREET
2135 REYNOLDS STREET,2135,REYNOLDS STREET
2136 REYNOLDS STREET,2136,REYNOLDS STREET
2141 REYNOLDS STREET,2141,REYNOLDS STREET
2142 REYNOLDS STREET,2142,REYNOLDS STREET
2149 REYNOLDS STREET,2149,REYNOLDS STREET
2152 REYNOLDS STREET,2152,REYNOLDS STREET
2164 REYNOLDS STREET,2164,REYNOLDS STREET
2168 REYNOLDS STREET,2168,REYNOLDS STREET
2169 REYNOLDS STREET,2169,REYNOLDS STREET
2172 REYNOLDS STREET,2172,REYNOLDS STREET
2178 REYNOLDS STREET,2178,REYNOLDS STREET
2201 REYNOLDS STREET,2201,REYNOLDS STREET
2212 REYNOLDS STREET,2212,REYNOLDS STREET
2220 REYNOLDS STREET,2220,REYNOLDS STREET
2261 REYNOLDS STREET,2261,REYNOLDS STREET
2265 REYNOLDS STREET,2265,REYNOLDS STREET
2278 REYNOLDS STREET,2278,REYNOLDS STREET
2305 REYNOLDS STREET,2305,REYNOLDS STREET
2322 REYNOLDS STREET,2322,REYNOLDS STREET
2326 REYNOLDS STREET,2326,REYNOLDS STREET
2332 REYNOLDS STREET,2332,REYNOLDS STREET
2336 REYNOLDS STREET,2336,REYNOLDS STREET
2350 REYNOLDS STREET,2350,REYNOLDS STREET
2448 REYNOLDS STREET,2448,REYNOLDS STREET
2517 REYNOLDS STREET,2517,REYNOLDS STREET
2521 REYNOLDS STREET,2521,REYNOLDS STREET
2533 REYNOLDS STREET,2533,REYNOLDS STREET
2537 REYNOLDS STREET,2537,REYNOLDS STREET
2022 REYNOLDS STREET,2022,REYNOLDS STREET
800 ROBINSON STREET,800,ROBINSON STREET
831 ROBINSON STREET,831,ROBINSON STREET
834 ROBINSON STREET,834,ROBINSON STREET
841 ROBINSON STREET,841,ROBINSON STREET
844 ROBINSON STREET,844,ROBINSON STREET
848 ROBINSON STREET,848,ROBINSON STREET
849 ROBINSON STREET,849,ROBINSON STREET
852 ROBINSON STREET,852,ROBINSON STREET
863 ROBINSON STREET,863,ROBINSON STREET
877 ROBINSON STREET,877,ROBINSON STREET
904 ROBINSON STREET,904,ROBINSON STREET
905 ROBINSON STREET,905,ROBINSON STREET
908 ROBINSON STREET,908,ROBINSON STREET
912 ROBINSON STREET,912,ROBINSON STREET
913 ROBINSON STREET,913,ROBINSON STREET
922 ROBINSON STREET,922,ROBINSON STREET
924 ROBINSON STREET,924,ROBINSON STREET
932 ROBINSON STREET,932,ROBINSON STREET
937 ROBINSON STREET,937,ROBINSON STREET
940 ROBINSON STREET,940,ROBINSON STREET
946 ROBINSON STREET,946,ROBINSON STREET
949 ROBINSON STREET,949,ROBINSON STREET
950 ROBINSON STREET,950,ROBINSON STREET
956 ROBINSON STREET,956,ROBINSON STREET
1000 ROBINSON STREET,1000,ROBINSON STREET
1004 ROBINSON STREET,1004,ROBINSON STREET
1010 ROBINSON STREET,1010,ROBINSON STREET
1013 ROBINSON STREET,1013,ROBINSON STREET
1017 ROBINSON STREET,1017,ROBINSON STREET
1041 ROBINSON STREET,1041,ROBINSON STREET
1043 ROBINSON STREET,1043,ROBINSON STREET
1044 ROBINSON STREET,1044,ROBINSON STREET
1047 ROBINSON STREET,1047,ROBINSON STREET
1051 ROBINSON STREET,1051,ROBINSON STREET
1061 ROBINSON STREET,1061,ROBINSON STREET
1070 ROBINSON STREET,1070,ROBINSON STREET
1126 ROBINSON STREET,1126,ROBINSON STREET
1133 ROBINSON STREET,1133,ROBINSON STREET
1136 ROBINSON STREET,1136,ROBINSON STREET
1140 ROBINSON STREET,1140,ROBINSON STREET
1141 ROBINSON STREET,1141,ROBINSON STREET
1148 ROBINSON STREET,1148,ROBINSON STREET
1150 ROBINSON STREET,1150,ROBINSON STREET
1223 ROBINSON STREET,1223,ROBINSON STREET
1224 ROBINSON STREET,1224,ROBINSON STREET
1229 ROBINSON STREET,1229,ROBINSON STREET
1232 ROBINSON STREET,1232,ROBINSON STREET
1236 ROBINSON STREET,1236,ROBINSON STREET
1243 ROBINSON STREET,1243,ROBINSON STREET
1249 ROBINSON STREET,1249,ROBINSON STREET
1265 ROBINSON STREET,1265,ROBINSON STREET
1329 ROBINSON STREET,1329,ROBINSON STREET
1367 ROBINSON STREET,1367,ROBINSON STREET
1371 ROBINSON STREET,1371,ROBINSON STREET
1416 ROBINSON STREET,1416,ROBINSON STREET
1418 ROBINSON STREET,1418,ROBINSON STREET
1421 ROBINSON STREET,1421,ROBINSON STREET
1422 ROBINSON STREET,1422,ROBINSON STREET
1425 ROBINSON STREET,1425,ROBINSON STREET
1447 ROBINSON STREET,1447,ROBINSON STREET
1451 ROBINSON STREET,1451,ROBINSON STREET
1453 ROBINSON STREET,1453,ROBINSON STREET
1454 ROBINSON STREET,1454,ROBINSON STREET
1540 ROBINSON STREET,1540,ROBINSON STREET
1558 ROBINSON STREET,1558,ROBINSON STREET
1565 ROBINSON STREET,1565,ROBINSON STREET
1567 ROBINSON STREET,1567,ROBINSON STREET
1568 ROBINSON STREET,1568,ROBINSON STREET
1571 ROBINSON STREET,1571,ROBINSON STREET
1572 ROBINSON STREET,1572,ROBINSON STREET
1843 ROBINSON STREET,1843,ROBINSON STREET
1900 ROBINSON STREET,1900,ROBINSON STREET
1903 ROBINSON STREET,1903,ROBINSON STREET
1907 ROBINSON STREET,1907,ROBINSON STREET
1917 ROBINSON STREET,1917,ROBINSON STREET
1955 ROBINSON STREET,1955,ROBINSON STREET
1959 ROBINSON STREET,1959,ROBINSON STREET
1965 ROBINSON STREET,1965,ROBINSON STREET
2022 ROBINSON STREET,2022,ROBINSON STREET
2031 ROBINSON STREET,2031,ROBINSON STREET
2047 ROBINSON STREET,2047,ROBINSON STREET
2050 ROBINSON STREET,2050,ROBINSON STREET
2060 ROBINSON STREET,2060,ROBINSON STREET
2068 ROBINSON STREET,2068,ROBINSON STREET
2070 ROBINSON STREET,2070,ROBINSON STREET
2152 ROBINSON STREET,2152,ROBINSON STREET
2166 ROBINSON STREET,2166,ROBINSON STREET
2235 ROBINSON STREET,2235,ROBINSON STREET
2243 ROBINSON STREET,2243,ROBINSON STREET
2250 ROBINSON STREET,2250,ROBINSON STREET
2252 ROBINSON STREET,2252,ROBINSON STREET
2256 ROBINSON STREET,2256,ROBINSON STREET
2260 ROBINSON STREET,2260,ROBINSON STREET
2261 ROBINSON STREET,2261,ROBINSON STREET
2269 ROBINSON STREET,2269,ROBINSON STREET
2275 ROBINSON STREET,2275,ROBINSON STREET
2311 ROBINSON STREET,2311,ROBINSON STREET
2312 ROBINSON STREET,2312,ROBINSON STREET
2319 ROBINSON STREET,2319,ROBINSON STREET
2323 ROBINSON STREET,2323,ROBINSON STREET
2332 ROBINSON STREET,2332,ROBINSON STREET
2335 ROBINSON STREET,2335,ROBINSON STREET
2336 ROBINSON STREET,2336,ROBINSON STREET
2340 ROBINSON STREET,2340,ROBINSON STREET
2610 ROBINSON STREET,2610,ROBINSON STREET
2616 ROBINSON STREET,2616,ROBINSON STREET
2636 ROBINSON STREET,2636,ROBINSON STREET
2642 ROBINSON STREET,2642,ROBINSON STREET
2672 ROBINSON STREET,2672,ROBINSON STREET
2674 ROBINSON STREET,2674,ROBINSON STREET
2678 ROBINSON STREET,2678,ROBINSON STREET
2701 ROBINSON STREET,2701,ROBINSON STREET
2707 ROBINSON STREET,2707,ROBINSON STREET
2711 ROBINSON STREET,2711,ROBINSON STREET
2725 ROBINSON STREET,2725,ROBINSON STREET
2733 ROBINSON STREET,2733,ROBINSON STREET
2744 ROBINSON STREET,2744,ROBINSON STREET
2834 ROBINSON STREET,2834,ROBINSON STREET
2850 ROBINSON STREET,2850,ROBINSON STREET
2878 ROBINSON STREET,2878,ROBINSON STREET
2901 ROBINSON STREET,2901,ROBINSON STREET
2925 ROBINSON STREET,2925,ROBINSON STREET
2931 ROBINSON STREET,2931,ROBINSON STREET
2936 ROBINSON STREET,2936,ROBINSON STREET
2939 ROBINSON STREET,2939,ROBINSON STREET
2944 ROBINSON STREET,2944,ROBINSON STREET
2945 ROBINSON STREET,2945,ROBINSON STREET
2960 ROBINSON STREET,2960,ROBINSON STREET
3033 ROBINSON STREET,3033,ROBINSON STREET
3040 ROBINSON STREET,3040,ROBINSON STREET
3044 ROBINSON STREET,3044,ROBINSON STREET
3048 ROBINSON STREET,3048,ROBINSON STREET
3054 ROBINSON STREET,3054,ROBINSON STREET
3071 ROBINSON STREET,3071,ROBINSON STREET
3110 ROBINSON STREET,3110,ROBINSON STREET
1129 ROBINSON STREET,1129,ROBINSON STREET
1335 ROBINSON STREET,1335,ROBINSON STREET
1441 ROBINSON STREET,1441,ROBINSON STREET
1542 ROBINSON STREET,1542,ROBINSON STREET
2023 ROBINSON STREET,2023,ROBINSON STREET
820 ROBINSON STREET,820,ROBINSON STREET
929 ROBINSON STREET,929,ROBINSON STREET
933 ROBINSON STREET,933,ROBINSON STREET
1150 ROSE STREET,1150,ROSE STREET
1175 ROSE STREET,1175,ROSE STREET
1333 ROSE STREET,1333,ROSE STREET
1402 ROSE STREET,1402,ROSE STREET
1855 ROSE STREET,1855,ROSE STREET
1860 ROSE STREET,1860,ROSE STREET
2152 ROSE STREET,2152,ROSE STREET
2172 ROSE STREET,2172,ROSE STREET
2230 ROSE STREET,2230,ROSE STREET
2266 ROSE STREET,2266,ROSE STREET
2270 ROSE STREET,2270,ROSE STREET
2313 ROSE STREET,2313,ROSE STREET
2321 ROSE STREET,2321,ROSE STREET
1440 ROSE STREET,1440,ROSE STREET
1801 ROSE STREET,1801,ROSE STREET
1829 ROSE STREET,1829,ROSE STREET
2102 ROSE STREET,2102,ROSE STREET
2176 ROSE STREET,2176,ROSE STREET
1444 ROYAL STREET,1444,ROYAL STREET
1459 ROYAL STREET,1459,ROYAL STREET
1715 ROYAL STREET,1715,ROYAL STREET
1718 ROYAL STREET,1718,ROYAL STREET
1726 ROYAL STREET,1726,ROYAL STREET
1837 ROYAL STREET,1837,ROYAL STREET
1021 SASKATCHEWAN DRIVE,1021,SASKATCHEWAN DRIVE
1403 SASKATCHEWAN DRIVE,1403,SASKATCHEWAN DRIVE
1409 SASKATCHEWAN DRIVE,1409,SASKATCHEWAN DRIVE
1650 SASKATCHEWAN DRIVE,1650,SASKATCHEWAN DRIVE
2837 SASKATCHEWAN DRIVE,2837,SASKATCHEWAN DRIVE
2901 SASKATCHEWAN DRIVE,2901,SASKATCHEWAN DRIVE
2909 SASKATCHEWAN DRIVE,2909,SASKATCHEWAN DRIVE
2925 SASKATCHEWAN DRIVE,2925,SASKATCHEWAN DRIVE
3405 SASKATCHEWAN DRIVE,3405,SASKATCHEWAN DRIVE
3525 SASKATCHEWAN DRIVE,3525,SASKATCHEWAN DRIVE
3527 SASKATCHEWAN DRIVE,3527,SASKATCHEWAN DRIVE
3529 SASKATCHEWAN DRIVE,3529,SASKATCHEWAN DRIVE
3535 SASKATCHEWAN DRIVE,3535,SASKATCHEWAN DRIVE
2729 SASKATCHEWAN DRIVE,2729,SASKATCHEWAN DRIVE
1201 SCARTH STREET,1201,SCARTH STREET
1208 SCARTH STREET,1208,SCARTH STREET
1271 SCARTH STREET,1271,SCARTH STREET
1328 SCARTH STREET,1328,SCARTH STREET
1335 SCARTH STREET,1335,SCARTH STREET
1340 SCARTH STREET,1340,SCARTH STREET
1355 SCARTH STREET,1355,SCARTH STREET
1362 SCARTH STREET,1362,SCARTH STREET
1422 SCARTH STREET,1422,SCARTH STREET
1901 SCARTH STREET,1901,SCARTH STREET
1975 SCARTH STREET,1975,SCARTH STREET
2049 SCARTH STREET,2049,SCARTH STREET
2250 SCARTH STREET,2250,SCARTH STREET
2260 SCARTH STREET,2260,SCARTH STREET
2076 SCARTH STREET,2076,SCARTH STREET
1333 SMITH STREET,1333,SMITH STREET
2145 SMITH STREET,2145,SMITH STREET
2156 SMITH STREET,2156,SMITH STREET
2168 SMITH STREET,2168,SMITH STREET
2175 SMITH STREET,2175,SMITH STREET
2237 SMITH STREET,2237,SMITH STREET
2245 SMITH STREET,2245,SMITH STREET
2305 SMITH STREET,2305,SMITH STREET
2320 SMITH STREET,2320,SMITH STREET
2323 SMITH STREET,2323,SMITH STREET
2338 SMITH STREET,2338,SMITH STREET
2345 SMITH STREET,2345,SMITH STREET
2353 SMITH STREET,2353,SMITH STREET
1717 SOUTH RAILWAY STREET,1717,SOUTH RAILWAY STREET
1440 SOUTH RAILWAY STREET,1440,SOUTH RAILWAY STREET
1373 ST JOHN STREET,1373,ST JOHN STREET
1401 ST JOHN STREET,1401,ST JOHN STREET
1651 ST JOHN STREET,1651,ST JOHN STREET
1727 ST JOHN STREET,1727,ST JOHN STREET
1734 ST JOHN STREET,1734,ST JOHN STREET
1736 ST JOHN STREET,1736,ST JOHN STREET
1737 ST JOHN STREET,1737,ST JOHN STREET
1747 ST JOHN STREET,1747,ST JOHN STREET
1751 ST JOHN STREET,1751,ST JOHN STREET
1755 ST JOHN STREET,1755,ST JOHN STREET
1757 ST JOHN STREET,1757,ST JOHN STREET
1761 ST JOHN STREET,1761,ST JOHN STREET
1770 ST JOHN STREET,1770,ST JOHN STREET
1811 ST JOHN STREET,1811,ST JOHN STREET
1825 ST JOHN STREET,1825,ST JOHN STREET
1827 ST JOHN STREET,1827,ST JOHN STREET
1831 ST JOHN STREET,1831,ST JOHN STREET
1834 ST JOHN STREET,1834,ST JOHN STREET
1837 ST JOHN STREET,1837,ST JOHN STREET
1840 ST JOHN STREET,1840,ST JOHN STREET
1843 ST JOHN STREET,1843,ST JOHN STREET
1849 ST JOHN STREET,1849,ST JOHN STREET
1853 ST JOHN STREET,1853,ST JOHN STREET
1862 ST JOHN STREET,1862,ST JOHN STREET
1871 ST JOHN STREET,1871,ST JOHN STREET
1879 ST JOHN STREET,1879,ST JOHN STREET
1903 ST JOHN STREET,1903,ST JOHN STREET
1913 ST JOHN STREET,1913,ST JOHN STREET
1915 ST JOHN STREET,1915,ST JOHN STREET
1920 ST JOHN STREET,1920,ST JOHN STREET
1924 ST JOHN STREET,1924,ST JOHN STREET
1925 ST JOHN STREET,1925,ST JOHN STREET
1929 ST JOHN STREET,1929,ST JOHN STREET
1931 ST JOHN STREET,1931,ST JOHN STREET
1933 ST JOHN STREET,1933,ST JOHN STREET
1936 ST JOHN STREET,1936,ST JOHN STREET
1940 ST JOHN STREET,1940,ST JOHN STREET
1949 ST JOHN STREET,1949,ST JOHN STREET
1960 ST JOHN STREET,1960,ST JOHN STREET
1964 ST JOHN STREET,1964,ST JOHN STREET
2023 ST JOHN STREET,2023,ST JOHN STREET
2026 ST JOHN STREET,2026,ST JOHN STREET
2040 ST JOHN STREET,2040,ST JOHN STREET
2043 ST JOHN STREET,2043,ST JOHN STREET
2047 ST JOHN STREET,2047,ST JOHN STREET
2051 ST JOHN STREET,2051,ST JOHN STREET
2060 ST JOHN STREET,2060,ST JOHN STREET
2065 ST JOHN STREET,2065,ST JOHN STREET
2074 ST JOHN STREET,2074,ST JOHN STREET
2075 ST JOHN STREET,2075,ST JOHN STREET
2309 ST JOHN STREET,2309,ST JOHN STREET
2321 ST JOHN STREET,2321,ST JOHN STREET
2325 ST JOHN STREET,2325,ST JOHN STREET
2329 ST JOHN STREET,2329,ST JOHN STREET
2341 ST JOHN STREET,2341,ST JOHN STREET
2354 ST JOHN STREET,2354,ST JOHN STREET
1771 ST JOHN STREET,1771,ST JOHN STREET
2041 ST JOHN STREET,2041,ST JOHN STREET
2322 ST JOHN STREET,2322,ST JOHN STREET
1610 TORONTO STREET,1610,TORONTO STREET
1616 TORONTO STREET,1616,TORONTO STREET
1624 TORONTO STREET,1624,TORONTO STREET
1628 TORONTO STREET,1628,TORONTO STREET
1629 TORONTO STREET,1629,TORONTO STREET
1633 TORONTO STREET,1633,TORONTO STREET
1637 TORONTO STREET,1637,TORONTO STREET
1641 TORONTO STREET,1641,TORONTO STREET
1647 TORONTO STREET,1647,TORONTO STREET
1651 TORONTO STREET,1651,TORONTO STREET
1670 TORONTO STREET,1670,TORONTO STREET
1674 TORONTO STREET,1674,TORONTO STREET
1678 TORONTO STREET,1678,TORONTO STREET
1681 TORONTO STREET,1681,TORONTO STREET
1682 TORONTO STREET,1682,TORONTO STREET
1712 TORONTO STREET,1712,TORONTO STREET
1730 TORONTO STREET,1730,TORONTO STREET
1740 TORONTO STREET,1740,TORONTO STREET
1748 TORONTO STREET,1748,TORONTO STREET
1752 TORONTO STREET,1752,TORONTO STREET
1756 TORONTO STREET,1756,TORONTO STREET
1758 TORONTO STREET,1758,TORONTO STREET
1764 TORONTO STREET,1764,TORONTO STREET
1818 TORONTO STREET,1818,TORONTO STREET
1822 TORONTO STREET,1822,TORONTO STREET
1840 TORONTO STREET,1840,TORONTO STREET
1843 TORONTO STREET,1843,TORONTO STREET
1844 TORONTO STREET,1844,TORONTO STREET
1847 TORONTO STREET,1847,TORONTO STREET
1848 TORONTO STREET,1848,TORONTO STREET
1850 TORONTO STREET,1850,TORONTO STREET
1851 TORONTO STREET,1851,TORONTO STREET
1857 TORONTO STREET,1857,TORONTO STREET
1859 TORONTO STREET,1859,TORONTO STREET
1861 TORONTO STREET,1861,TORONTO STREET
1862 TORONTO STREET,1862,TORONTO STREET
1866 TORONTO STREET,1866,TORONTO STREET
1867 TORONTO STREET,1867,TORONTO STREET
1871 TORONTO STREET,1871,TORONTO STREET
1872 TORONTO STREET,1872,TORONTO STREET
1876 TORONTO STREET,1876,TORONTO STREET
1878 TORONTO STREET,1878,TORONTO STREET
1881 TORONTO STREET,1881,TORONTO STREET
1909 TORONTO STREET,1909,TORONTO STREET
1925 TORONTO STREET,1925,TORONTO STREET
1929 TORONTO STREET,1929,TORONTO STREET
1933 TORONTO STREET,1933,TORONTO STREET
1937 TORONTO STREET,1937,TORONTO STREET
1941 TORONTO STREET,1941,TORONTO STREET
1957 TORONTO STREET,1957,TORONTO STREET
2024 TORONTO STREET,2024,TORONTO STREET
2032 TORONTO STREET,2032,TORONTO STREET
2034 TORONTO STREET,2034,TORONTO STREET
2046 TORONTO STREET,2046,TORONTO STREET
2048 TORONTO STREET,2048,TORONTO STREET
2062 TORONTO STREET,2062,TORONTO STREET
2066 TORONTO STREET,2066,TORONTO STREET
2070 TORONTO STREET,2070,TORONTO STREET
2074 TORONTO STREET,2074,TORONTO STREET
2201 TORONTO STREET,2201,TORONTO STREET
2213 TORONTO STREET,2213,TORONTO STREET
2217 TORONTO STREET,2217,TORONTO STREET
2221 TORONTO STREET,2221,TORONTO STREET
2231 TORONTO STREET,2231,TORONTO STREET
2238 TORONTO STREET,2238,TORONTO STREET
2239 TORONTO STREET,2239,TORONTO STREET
2243 TORONTO STREET,2243,TORONTO STREET
2245 TORONTO STREET,2245,TORONTO STREET
2246 TORONTO STREET,2246,TORONTO STREET
2250 TORONTO STREET,2250,TORONTO STREET
2255 TORONTO STREET,2255,TORONTO STREET
2261 TORONTO STREET,2261,TORONTO STREET
2318 TORONTO STREET,2318,TORONTO STREET
2322 TORONTO STREET,2322,TORONTO STREET
2324 TORONTO STREET,2324,TORONTO STREET
2327 TORONTO STREET,2327,TORONTO STREET
2328 TORONTO STREET,2328,TORONTO STREET
2331 TORONTO STREET,2331,TORONTO STREET
2334 TORONTO STREET,2334,TORONTO STREET
2335 TORONTO STREET,2335,TORONTO STREET
2337 TORONTO STREET,2337,TORONTO STREET
2340 TORONTO STREET,2340,TORONTO STREET
2344 TORONTO STREET,2344,TORONTO STREET
2345 TORONTO STREET,2345,TORONTO STREET
2351 TORONTO STREET,2351,TORONTO STREET
1689 TORONTO STREET,1689,TORONTO STREET
2078 TORONTO STREET,2078,TORONTO STREET
2242 TORONTO STREET,2242,TORONTO STREET
340 VICTORIA AVENUE,340,VICTORIA AVENUE
348 VICTORIA AVENUE,348,VICTORIA AVENUE
402 VICTORIA AVENUE,402,VICTORIA AVENUE
406 VICTORIA AVENUE,406,VICTORIA AVENUE
407 VICTORIA AVENUE,407,VICTORIA AVENUE
410 VICTORIA AVENUE,410,VICTORIA AVENUE
414 VICTORIA AVENUE,414,VICTORIA AVENUE
422 VICTORIA AVENUE,422,VICTORIA AVENUE
518 VICTORIA AVENUE,518,VICTORIA AVENUE
520 VICTORIA AVENUE,520,VICTORIA AVENUE
521 VICTORIA AVENUE,521,VICTORIA AVENUE
528 VICTORIA AVENUE,528,VICTORIA AVENUE
600 VICTORIA AVENUE,600,VICTORIA AVENUE
606 VICTORIA AVENUE,606,VICTORIA AVENUE
612 VICTORIA AVENUE,612,VICTORIA AVENUE
622 VICTORIA AVENUE,622,VICTORIA AVENUE
628 VICTORIA AVENUE,628,VICTORIA AVENUE
636 VICTORIA AVENUE,636,VICTORIA AVENUE
715 VICTORIA AVENUE,715,VICTORIA AVENUE
719 VICTORIA AVENUE,719,VICTORIA AVENUE
723 VICTORIA AVENUE,723,VICTORIA AVENUE
727 VICTORIA AVENUE,727,VICTORIA AVENUE
729 VICTORIA AVENUE,729,VICTORIA AVENUE
737 VICTORIA AVENUE,737,VICTORIA AVENUE
803 VICTORIA AVENUE,803,VICTORIA AVENUE
818 VICTORIA AVENUE,818,VICTORIA AVENUE
820 VICTORIA AVENUE,820,VICTORIA AVENUE
826 VICTORIA AVENUE,826,VICTORIA AVENUE
828 VICTORIA AVENUE,828,VICTORIA AVENUE
832 VICTORIA AVENUE,832,VICTORIA AVENUE
910 VICTORIA AVENUE,910,VICTORIA AVENUE
935 VICTORIA AVENUE,935,VICTORIA AVENUE
1002 VICTORIA AVENUE,1002,VICTORIA AVENUE
1010 VICTORIA AVENUE,1010,VICTORIA AVENUE
1131 VICTORIA AVENUE,1131,VICTORIA AVENUE
1133 VICTORIA AVENUE,1133,VICTORIA AVENUE
1139 VICTORIA AVENUE,1139,VICTORIA AVENUE
1200 VICTORIA AVENUE,1200,VICTORIA AVENUE
1222 VICTORIA AVENUE,1222,VICTORIA AVENUE
1300 VICTORIA AVENUE,1300,VICTORIA AVENUE
1301 VICTORIA AVENUE,1301,VICTORIA AVENUE
1312 VICTORIA AVENUE,1312,VICTORIA AVENUE
1317 VICTORIA AVENUE,1317,VICTORIA AVENUE
1321 VICTORIA AVENUE,1321,VICTORIA AVENUE
1327 VICTORIA AVENUE,1327,VICTORIA AVENUE
1338 VICTORIA AVENUE,1338,VICTORIA AVENUE
1411 VICTORIA AVENUE,1411,VICTORIA AVENUE
1504 VICTORIA AVENUE,1504,VICTORIA AVENUE
1508 VICTORIA AVENUE,1508,VICTORIA AVENUE
1524 VICTORIA AVENUE,1524,VICTORIA AVENUE
1525 VICTORIA AVENUE,1525,VICTORIA AVENUE
1532 VICTORIA AVENUE,1532,VICTORIA AVENUE
1536 VICTORIA AVENUE,1536,VICTORIA AVENUE
1601 VICTORIA AVENUE,1601,VICTORIA AVENUE
1602 VICTORIA AVENUE,1602,VICTORIA AVENUE
1631 VICTORIA AVENUE,1631,VICTORIA AVENUE
1637 VICTORIA AVENUE,1637,VICTORIA AVENUE
2002 VICTORIA AVENUE,2002,VICTORIA AVENUE
2476 VICTORIA AVENUE,2476,VICTORIA AVENUE
2718 VICTORIA AVENUE,2718,VICTORIA AVENUE
2730 VICTORIA AVENUE,2730,VICTORIA AVENUE
2738 VICTORIA AVENUE,2738,VICTORIA AVENUE
2800 VICTORIA AVENUE,2800,VICTORIA AVENUE
2802 VICTORIA AVENUE,2802,VICTORIA AVENUE
2825 VICTORIA AVENUE,2825,VICTORIA AVENUE
2836 VICTORIA AVENUE,2836,VICTORIA AVENUE
2839 VICTORIA AVENUE,2839,VICTORIA AVENUE
2912 VICTORIA AVENUE,2912,VICTORIA AVENUE
2915 VICTORIA AVENUE,2915,VICTORIA AVENUE
2930 VICTORIA AVENUE,2930,VICTORIA AVENUE
2932 VICTORIA AVENUE,2932,VICTORIA AVENUE
2940 VICTORIA AVENUE,2940,VICTORIA AVENUE
3013 VICTORIA AVENUE,3013,VICTORIA AVENUE
3025 VICTORIA AVENUE,3025,VICTORIA AVENUE
3030 VICTORIA AVENUE,3030,VICTORIA AVENUE
3031 VICTORIA AVENUE,3031,VICTORIA AVENUE
3033 VICTORIA AVENUE,3033,VICTORIA AVENUE
3036 VICTORIA AVENUE,3036,VICTORIA AVENUE
3119 VICTORIA AVENUE,3119,VICTORIA AVENUE
3120 VICTORIA AVENUE,3120,VICTORIA AVENUE
3124 VICTORIA AVENUE,3124,VICTORIA AVENUE
3131 VICTORIA AVENUE,3131,VICTORIA AVENUE
3132 VICTORIA AVENUE,3132,VICTORIA AVENUE
3135 VICTORIA AVENUE,3135,VICTORIA AVENUE
3140 VICTORIA AVENUE,3140,VICTORIA AVENUE
3204 VICTORIA AVENUE,3204,VICTORIA AVENUE
3208 VICTORIA AVENUE,3208,VICTORIA AVENUE
3212 VICTORIA AVENUE,3212,VICTORIA AVENUE
3213 VICTORIA AVENUE,3213,VICTORIA AVENUE
3220 VICTORIA AVENUE,3220,VICTORIA AVENUE
3223 VICTORIA AVENUE,3223,VICTORIA AVENUE
3224 VICTORIA AVENUE,3224,VICTORIA AVENUE
3234 VICTORIA AVENUE,3234,VICTORIA AVENUE
3300 VICTORIA AVENUE,3300,VICTORIA AVENUE
3304 VICTORIA AVENUE,3304,VICTORIA AVENUE
3305 VICTORIA AVENUE,3305,VICTORIA AVENUE
3319 VICTORIA AVENUE,3319,VICTORIA AVENUE
3321 VICTORIA AVENUE,3321,VICTORIA AVENUE
3324 VICTORIA AVENUE,3324,VICTORIA AVENUE
3325 VICTORIA AVENUE,3325,VICTORIA AVENUE
3328 VICTORIA AVENUE,3328,VICTORIA AVENUE
3331 VICTORIA AVENUE,3331,VICTORIA AVENUE
3335 VICTORIA AVENUE,3335,VICTORIA AVENUE
3403 VICTORIA AVENUE,3403,VICTORIA AVENUE
3424 VICTORIA AVENUE,3424,VICTORIA AVENUE
3430 VICTORIA AVENUE,3430,VICTORIA AVENUE
3634 VICTORIA AVENUE,3634,VICTORIA AVENUE
1108 VICTORIA AVENUE,1108,VICTORIA AVENUE
1520 VICTORIA AVENUE,1520,VICTORIA AVENUE
3130 VICTORIA AVENUE,3130,VICTORIA AVENUE
517 VICTORIA AVENUE,517,VICTORIA AVENUE
954 WALLACE STREET,954,WALLACE STREET
1001 WALLACE STREET,1001,WALLACE STREET
1014 WALLACE STREET,1014,WALLACE STREET
1024 WALLACE STREET,1024,WALLACE STREET
1030 WALLACE STREET,1030,WALLACE STREET
1036 WALLACE STREET,1036,WALLACE STREET
1074 WALLACE STREET,1074,WALLACE STREET
1112 WALLACE STREET,1112,WALLACE STREET
1161 WALLACE STREET,1161,WALLACE STREET
1205 WALLACE STREET,1205,WALLACE STREET
1221 WALLACE STREET,1221,WALLACE STREET
1241 WALLACE STREET,1241,WALLACE STREET
1249 WALLACE STREET,1249,WALLACE STREET
1276 WALLACE STREET,1276,WALLACE STREET
1736 WALLACE STREET,1736,WALLACE STREET
1758 WALLACE STREET,1758,WALLACE STREET
1762 WALLACE STREET,1762,WALLACE STREET
1766 WALLACE STREET,1766,WALLACE STREET
1768 WALLACE STREET,1768,WALLACE STREET
1777 WALLACE STREET,1777,WALLACE STREET
1901 WALLACE STREET,1901,WALLACE STREET
1906 WALLACE STREET,1906,WALLACE STREET
1908 WALLACE STREET,1908,WALLACE STREET
1912 WALLACE STREET,1912,WALLACE STREET
1913 WALLACE STREET,1913,WALLACE STREET
1921 WALLACE STREET,1921,WALLACE STREET
1922 WALLACE STREET,1922,WALLACE STREET
1925 WALLACE STREET,1925,WALLACE STREET
1928 WALLACE STREET,1928,WALLACE STREET
1932 WALLACE STREET,1932,WALLACE STREET
1933 WALLACE STREET,1933,WALLACE STREET
1936 WALLACE STREET,1936,WALLACE STREET
1937 WALLACE STREET,1937,WALLACE STREET
1944 WALLACE STREET,1944,WALLACE STREET
1945 WALLACE STREET,1945,WALLACE STREET
1949 WALLACE STREET,1949,WALLACE STREET
2023 WALLACE STREET,2023,WALLACE STREET
2031 WALLACE STREET,2031,WALLACE STREET
2034 WALLACE STREET,2034,WALLACE STREET
2040 WALLACE STREET,2040,WALLACE STREET
2044 WALLACE STREET,2044,WALLACE STREET
2046 WALLACE STREET,2046,WALLACE STREET
2047 WALLACE STREET,2047,WALLACE STREET
2053 WALLACE STREET,2053,WALLACE STREET
2059 WALLACE STREET,2059,WALLACE STREET
2069 WALLACE STREET,2069,WALLACE STREET
2100 WALLACE STREET,2100,WALLACE STREET
2104 WALLACE STREET,2104,WALLACE STREET
2109 WALLACE STREET,2109,WALLACE STREET
2112 WALLACE STREET,2112,WALLACE STREET
2117 WALLACE STREET,2117,WALLACE STREET
2126 WALLACE STREET,2126,WALLACE STREET
2129 WALLACE STREET,2129,WALLACE STREET
2130 WALLACE STREET,2130,WALLACE STREET
2135 WALLACE STREET,2135,WALLACE STREET
2140 WALLACE STREET,2140,WALLACE STREET
2141 WALLACE STREET,2141,WALLACE STREET
2143 WALLACE STREET,2143,WALLACE STREET
2148 WALLACE STREET,2148,WALLACE STREET
2151 WALLACE STREET,2151,WALLACE STREET
2163 WALLACE STREET,2163,WALLACE STREET
2175 WALLACE STREET,2175,WALLACE STREET
2178 WALLACE STREET,2178,WALLACE STREET
2212 WALLACE STREET,2212,WALLACE STREET
2236 WALLACE STREET,2236,WALLACE STREET
2240 WALLACE STREET,2240,WALLACE STREET
2244 WALLACE STREET,2244,WALLACE STREET
2262 WALLACE STREET,2262,WALLACE STREET
2276 WALLACE STREET,2276,WALLACE STREET
2300 WALLACE STREET,2300,WALLACE STREET
2307 WALLACE STREET,2307,WALLACE STREET
2324 WALLACE STREET,2324,WALLACE STREET
2326 WALLACE STREET,2326,WALLACE STREET
2327 WALLACE STREET,2327,WALLACE STREET
2329 WALLACE STREET,2329,WALLACE STREET
2330 WALLACE STREET,2330,WALLACE STREET
2344 WALLACE STREET,2344,WALLACE STREET
2345 WALLACE STREET,2345,WALLACE STREET
2351 WALLACE STREET,2351,WALLACE STREET
2352 WALLACE STREET,2352,WALLACE STREET
2358 WALLACE STREET,2358,WALLACE STREET
2425 WALLACE STREET,2425,WALLACE STREET
2428 WALLACE STREET,2428,WALLACE STREET
2430 WALLACE STREET,2430,WALLACE STREET
2441 WALLACE STREET,2441,WALLACE STREET
2444 WALLACE STREET,2444,WALLACE STREET
2445 WALLACE STREET,2445,WALLACE STREET
2446 WALLACE STREET,2446,WALLACE STREET
2452 WALLACE STREET,2452,WALLACE STREET
2457 WALLACE STREET,2457,WALLACE STREET
2464 WALLACE STREET,2464,WALLACE STREET
2470 WALLACE STREET,2470,WALLACE STREET
2471 WALLACE STREET,2471,WALLACE STREET
2502 WALLACE STREET,2502,WALLACE STREET
2509 WALLACE STREET,2509,WALLACE STREET
2510 WALLACE STREET,2510,WALLACE STREET
2515 WALLACE STREET,2515,WALLACE STREET
2516 WALLACE STREET,2516,WALLACE STREET
2517 WALLACE STREET,2517,WALLACE STREET
2520 WALLACE STREET,2520,WALLACE STREET
2525 WALLACE STREET,2525,WALLACE STREET
2526 WALLACE STREET,2526,WALLACE STREET
2527 WALLACE STREET,2527,WALLACE STREET
2541 WALLACE STREET,2541,WALLACE STREET
2543 WALLACE STREET,2543,WALLACE STREET
2547 WALLACE STREET,2547,WALLACE STREET
2551 WALLACE STREET,2551,WALLACE STREET
2554 WALLACE STREET,2554,WALLACE STREET
2608 WALLACE STREET,2608,WALLACE STREET
2612 WALLACE STREET,2612,WALLACE STREET
2616 WALLACE STREET,2616,WALLACE STREET
2620 WALLACE STREET,2620,WALLACE STREET
2624 WALLACE STREET,2624,WALLACE STREET
2645 WALLACE STREET,2645,WALLACE STREET
2646 WALLACE STREET,2646,WALLACE STREET
2651 WALLACE STREET,2651,WALLACE STREET
2671 WALLACE STREET,2671,WALLACE STREET
2679 WALLACE STREET,2679,WALLACE STREET
2701 WALLACE STREET,2701,WALLACE STREET
2704 WALLACE STREET,2704,WALLACE STREET
2712 WALLACE STREET,2712,WALLACE STREET
2768 WALLACE STREET,2768,WALLACE STREET
2774 WALLACE STREET,2774,WALLACE STREET
1055 WASCANA STREET,1055,WASCANA STREET
1077 WASCANA STREET,1077,WASCANA STREET
1131 WASCANA STREET,1131,WASCANA STREET
1137 WASCANA STREET,1137,WASCANA STREET
1143 WASCANA STREET,1143,WASCANA STREET
1149 WASCANA STREET,1149,WASCANA STREET
1209 WASCANA STREET,1209,WASCANA STREET
1217 WASCANA STREET,1217,WASCANA STREET
1225 WASCANA STREET,1225,WASCANA STREET
1256 WASCANA STREET,1256,WASCANA STREET
1257 WASCANA STREET,1257,WASCANA STREET
1259 WASCANA STREET,1259,WASCANA STREET
1277 WASCANA STREET,1277,WASCANA STREET
1319 WASCANA STREET,1319,WASCANA STREET
1355 WASCANA STREET,1355,WASCANA STREET
1357 WASCANA STREET,1357,WASCANA STREET
1377 WASCANA STREET,1377,WASCANA STREET
1401 WASCANA STREET,1401,WASCANA STREET
1405 WASCANA STREET,1405,WASCANA STREET
1411 WASCANA STREET,1411,WASCANA STREET
1419 WASCANA STREET,1419,WASCANA STREET
1420 WASCANA STREET,1420,WASCANA STREET
1421 WASCANA STREET,1421,WASCANA STREET
1436 WASCANA STREET,1436,WASCANA STREET
1437 WASCANA STREET,1437,WASCANA STREET
1445 WASCANA STREET,1445,WASCANA STREET
2045 WASCANA STREET,2045,WASCANA STREET
2051 WASCANA STREET,2051,WASCANA STREET
2073 WASCANA STREET,2073,WASCANA STREET
2079 WASCANA STREET,2079,WASCANA STREET
2108 WASCANA STREET,2108,WASCANA STREET
2217 WASCANA STREET,2217,WASCANA STREET
2270 WASCANA STREET,2270,WASCANA STREET
2271 WASCANA STREET,2271,WASCANA STREET
2277 WASCANA STREET,2277,WASCANA STREET
1143 WINNIPEG STREET,1143,WINNIPEG STREET
1357 WINNIPEG STREET,1357,WINNIPEG STREET
1570 WINNIPEG STREET,1570,WINNIPEG STREET
1754 WINNIPEG STREET,1754,WINNIPEG STREET
1830 WINNIPEG STREET,1830,WINNIPEG STREET
1864 WINNIPEG STREET,1864,WINNIPEG STREET
530 WINNIPEG STREET,530,WINNIPEG STREET
703 WINNIPEG STREET,703,WINNIPEG STREET
917 WINNIPEG STREET,917,WINNIPEG STREET
1015 WINNIPEG STREET,1015,WINNIPEG STREET
1025 WINNIPEG STREET,1025,WINNIPEG STREET
1045 WINNIPEG STREET,1045,WINNIPEG STREET
1101 WINNIPEG STREET,1101,WINNIPEG STREET
1125 WINNIPEG STREET,1125,WINNIPEG STREET
1145 WINNIPEG STREET,1145,WINNIPEG STREET
1165 WINNIPEG STREET,1165,WINNIPEG STREET
1201 WINNIPEG STREET,1201,WINNIPEG STREET
1275 WINNIPEG STREET,1275,WINNIPEG STREET
1343 WINNIPEG STREET,1343,WINNIPEG STREET
1675 WINNIPEG STREET,1675,WINNIPEG STREET
1720 WINNIPEG STREET,1720,WINNIPEG STREET
1726 WINNIPEG STREET,1726,WINNIPEG STREET
1729 WINNIPEG STREET,1729,WINNIPEG STREET
1732 WINNIPEG STREET,1732,WINNIPEG STREET
1735 WINNIPEG STREET,1735,WINNIPEG STREET
1736 WINNIPEG STREET,1736,WINNIPEG STREET
1740 WINNIPEG STREET,1740,WINNIPEG STREET
1742 WINNIPEG STREET,1742,WINNIPEG STREET
1744 WINNIPEG STREET,1744,WINNIPEG STREET
1756 WINNIPEG STREET,1756,WINNIPEG STREET
1774 WINNIPEG STREET,1774,WINNIPEG STREET
1778 WINNIPEG STREET,1778,WINNIPEG STREET
1800 WINNIPEG STREET,1800,WINNIPEG STREET
1801 WINNIPEG STREET,1801,WINNIPEG STREET
1824 WINNIPEG STREET,1824,WINNIPEG STREET
1825 WINNIPEG STREET,1825,WINNIPEG STREET
1832 WINNIPEG STREET,1832,WINNIPEG STREET
1838 WINNIPEG STREET,1838,WINNIPEG STREET
1846 WINNIPEG STREET,1846,WINNIPEG STREET
1849 WINNIPEG STREET,1849,WINNIPEG STREET
1850 WINNIPEG STREET,1850,WINNIPEG STREET
1852 WINNIPEG STREET,1852,WINNIPEG STREET
1858 WINNIPEG STREET,1858,WINNIPEG STREET
1861 WINNIPEG STREET,1861,WINNIPEG STREET
1871 WINNIPEG STREET,1871,WINNIPEG STREET
1873 WINNIPEG STREET,1873,WINNIPEG STREET
1900 WINNIPEG STREET,1900,WINNIPEG STREET
1904 WINNIPEG STREET,1904,WINNIPEG STREET
1911 WINNIPEG STREET,1911,WINNIPEG STREET
1914 WINNIPEG STREET,1914,WINNIPEG STREET
1915 WINNIPEG STREET,1915,WINNIPEG STREET
1919 WINNIPEG STREET,1919,WINNIPEG STREET
1921 WINNIPEG STREET,1921,WINNIPEG STREET
1929 WINNIPEG STREET,1929,WINNIPEG STREET
1936 WINNIPEG STREET,1936,WINNIPEG STREET
1937 WINNIPEG STREET,1937,WINNIPEG STREET
1954 WINNIPEG STREET,1954,WINNIPEG STREET
1956 WINNIPEG STREET,1956,WINNIPEG STREET
1958 WINNIPEG STREET,1958,WINNIPEG STREET
2218 WINNIPEG STREET,2218,WINNIPEG STREET
2344 WINNIPEG STREET,2344,WINNIPEG STREET
1143 WINNIPEG STREET,1143,WINNIPEG STREET
1357 WINNIPEG STREET,1357,WINNIPEG STREET
1570 WINNIPEG STREET,1570,WINNIPEG STREET
1754 WINNIPEG STREET,1754,WINNIPEG STREET
1830 WINNIPEG STREET,1830,WINNIPEG STREET
1864 WINNIPEG STREET,1864,WINNIPEG STREET
530 WINNIPEG STREET,530,WINNIPEG STREET
660 WINNIPEG STREET,660,WINNIPEG STREET
703 WINNIPEG STREET,703,WINNIPEG STREET
1700 YORK STREET,1700,YORK STREET
1726 YORK STREET,1726,YORK STREET
1733 YORK STREET,1733,YORK STREET
1736 YORK STREET,1736,YORK STREET
1742 YORK STREET,1742,YORK STREET
1745 YORK STREET,1745,YORK STREET
1753 YORK STREET,1753,YORK STREET
1758 YORK STREET,1758,YORK STREET
1765 YORK STREET,1765,YORK STREET
1769 YORK STREET,1769,YORK STREET
1808 YORK STREET,1808,YORK STREET
1809 YORK STREET,1809,YORK STREET
1820 YORK STREET,1820,YORK STREET
1829 YORK STREET,1829,YORK STREET
1835 YORK STREET,1835,YORK STREET
1841 YORK STREET,1841,YORK STREET
1849 YORK STREET,1849,YORK STREET
1852 YORK STREET,1852,YORK STREET
1869 YORK STREET,1869,YORK STREET
1903 YORK STREET,1903,YORK STREET
1909 YORK STREET,1909,YORK STREET
1914 YORK STREET,1914,YORK STREET
1918 YORK STREET,1918,YORK STREET
1924 YORK STREET,1924,YORK STREET
1951 YORK STREET,1951,YORK STREET
2025 YORK STREET,2025,YORK STREET
2053 YORK STREET,2053,YORK STREET
2100 YORK STREET,2100,YORK STREET
2165 YORK STREET,2165,YORK STREET
2172 YORK STREET,2172,YORK STREET
